{"type":"FeatureCollection","features":[{"type":"Feature","properties":{"emd_cd":"4159325000","emd_nm":"봉담읍","sgg_cd":"41593","sgg_nm":"화성시","district":"병","district_label":"화성시병"},"geometry":{"type":"Polygon","coordinates":[[[126.9703933011367,37.229196744879594],[126.96695423283646,37.23562517684138],[126.95776467963022,37.23976480644073],[126.95795860148625,37.24259827223269],[126.95667789024778,37.245188443536215],[126.95384215753904,37.24285659360508],[126.94802647328322,37.242567096357796],[126.94613979880121,37.23913636659063],[126.94236149013402,37.23929365502354],[126.93955509495086,37.242161114009726],[126.93391468611503,37.24362651079406],[126.9306708499979,37.24269562508208],[126.92962533105212,37.23789742962446],[126.92812718530674,37.23529982107077],[126.92524707890648,37.23452418836613],[126.92531194764538,37.238408398301225],[126.91589907963323,37.24156341839455],[126.91236912205225,37.23860293362009],[126.91211947539776,37.23554028554214],[126.90726486269031,37.2333741684365],[126.90942603256605,37.22422341075596],[126.90536497276922,37.218341762719945],[126.90336993875583,37.216827526217294],[126.90468542799849,37.213918125251354],[126.90757825806126,37.21150108154342],[126.90834345198421,37.20741997945307],[126.90610670798111,37.19920429905833],[126.9035303001576,37.198421756229216],[126.89990363128334,37.19404073115911],[126.90420762250497,37.192444410179135],[126.91484642661902,37.19184503949235],[126.91997010101714,37.18964602739258],[126.91979510452771,37.18794377402819],[126.92150556638441,37.18295273788403],[126.92105609549691,37.17920183245744],[126.9172135468884,37.175862394066385],[126.91945943406553,37.17052702339826],[126.92134685572134,37.16831204108202],[126.91553573199982,37.16590381260215],[126.9148731385553,37.15997533516586],[126.91699006454567,37.155736368330935],[126.92041811681123,37.154506979509804],[126.92610525852074,37.16102136081029],[126.93551903737296,37.161172185157994],[126.9366134590224,37.157118006561376],[126.93405394022838,37.150247248426275],[126.92906378520084,37.14792247189162],[126.9288243397768,37.14616587508159],[126.93059510921017,37.14353208497546],[126.93297439758177,37.14354011620106],[126.93568283303456,37.14547529677059],[126.94182745288708,37.14307622864222],[126.94520617454809,37.14529264912857],[126.94602974677332,37.150577630712554],[126.94303126633287,37.1542537181469],[126.94324152902406,37.15725526491368],[126.94492012723966,37.15939384218487],[126.9456728354642,37.164662705862206],[126.94424079884195,37.17106633807198],[126.94860365926786,37.17421666044887],[126.95139303482242,37.17490809980533],[126.95160811603775,37.17787112527387],[126.94947167427998,37.18276377244485],[126.95002504070895,37.185198962144966],[126.95265862594043,37.1892821192202],[126.95020457981016,37.193864705676624],[126.95414376963517,37.19598361889756],[126.96186022561425,37.19685661034602],[126.96787876728062,37.19830464107385],[126.97268050253395,37.19657175643205],[126.97516123768986,37.19651629412026],[126.97879990309069,37.1980771390744],[126.9842175984551,37.195726780358086],[126.98373180748975,37.197582202787785],[126.98556588185264,37.20023289868863],[126.98510283092918,37.201941296313784],[126.97998573485434,37.206822627521106],[126.97974262444933,37.212482297577274],[126.98161143363919,37.21329837214852],[126.97660502119903,37.22199965074988],[126.9739488280597,37.222247036051634],[126.9703933011367,37.229196744879594]]]}},{"type":"Feature","properties":{"emd_cd":"4159125000","emd_nm":"우정읍","sgg_cd":"41591","sgg_nm":"화성시","district":"갑","district_label":"화성시갑"},"geometry":{"type":"MultiPolygon","coordinates":[[[[126.73169762464205,37.072226362333396],[126.73382910593003,37.07351113782024],[126.74112294733207,37.07563577977663],[126.74250953481574,37.07676239159115],[126.74194945574337,37.08322867568186],[126.73944492556326,37.08651404881207],[126.73743083268545,37.09178674256834],[126.73525967401504,37.092644930618285],[126.73581082095627,37.082999983410446],[126.73191215567905,37.07772296773847],[126.73051860542077,37.073960691966505],[126.73169762464205,37.072226362333396]]],[[[126.53985144455416,37.0994514745266],[126.54166733840243,37.102761594370584],[126.54117393129218,37.1089839357221],[126.54016896365835,37.11180955339956],[126.53703703069493,37.108938013511924],[126.53786475045834,37.10356004372604],[126.53985144455416,37.0994514745266]]],[[[126.80685368241353,37.01272366026244],[126.80644038502189,37.016547788245376],[126.80661893791662,37.02558332891339],[126.81275169579973,37.02558745687113],[126.81248083541418,37.04129312948523],[126.8101652688598,37.04756595249235],[126.80277422994926,37.049153185279984],[126.80101703652129,37.05258253313896],[126.79582398611387,37.05632141856599],[126.79581853458825,37.058754505570214],[126.8001243769138,37.06608083279622],[126.80533734872613,37.06691709869171],[126.81206756928013,37.070796668858684],[126.81043958495582,37.07302236350325],[126.80725082339112,37.074590308545766],[126.80688752978156,37.079665394140434],[126.81024197584146,37.081174534934746],[126.81474924157168,37.07993079760667],[126.8233501498897,37.08366136959942],[126.82392058508181,37.086498396747956],[126.8263898122585,37.08687918835447],[126.82903110124987,37.091246818805836],[126.82750641367427,37.09587656805571],[126.83361415355047,37.098819217070584],[126.82978145443661,37.10212270489823],[126.82492074078361,37.10265062423983],[126.82227582294347,37.105441175288796],[126.81483647895593,37.10843504177482],[126.81385361231715,37.11609798851088],[126.81482949178971,37.116472181815645],[126.83103644953206,37.11753601017245],[126.82859835942472,37.123718205714184],[126.82392416684196,37.12700663213541],[126.824259014606,37.12962712557636],[126.81194994624018,37.13941430700983],[126.81037741914623,37.14016009408119],[126.80131113672715,37.13874024678023],[126.79591229422812,37.134568604548605],[126.79492655193656,37.129014530317896],[126.78748628195434,37.1298027867114],[126.78682172845997,37.13268778980963],[126.7825195800024,37.13507871653025],[126.77609971580459,37.13229927059282],[126.7739995003966,37.128304607892225],[126.76873981757805,37.12789596127057],[126.76437593096135,37.12304194576338],[126.75940491744801,37.116293281358764],[126.75817088180428,37.11255487619278],[126.7586395095403,37.11066598405353],[126.76534204149073,37.10591785772094],[126.76634659876372,37.10371901158259],[126.77023703376281,37.102832598283086],[126.77033129745277,37.10114529314085],[126.76823490887946,37.09570139236918],[126.76628419002213,37.09319394291147],[126.76710910186286,37.09093612880792],[126.76423903261038,37.08650595938139],[126.76494563996573,37.08469850807186],[126.7636679736501,37.08120438048854],[126.76277099365375,37.07522245651324],[126.76431119181488,37.07037788377116],[126.76133843339355,37.06807887210512],[126.7628863708817,37.062798354812024],[126.77018183857409,37.06384627030056],[126.76895396770144,37.060140625286664],[126.75658886207421,37.056386047610744],[126.74836738352101,37.04903504438103],[126.74479783128747,37.041624156496866],[126.74475198869676,37.036319035374454],[126.74881825380825,37.03009803298015],[126.75100563879833,37.02925100714912],[126.76567911360983,37.02933145491533],[126.78905982430179,37.02917186626012],[126.79456292376928,37.02579170938629],[126.7950308742211,37.01803577314037],[126.79665979739202,37.01602035905196],[126.79691478942877,37.01206008437089],[126.80685368241353,37.01272366026244]]]]}},{"type":"Feature","properties":{"emd_cd":"4159125300","emd_nm":"향남읍","sgg_cd":"41591","sgg_nm":"화성시","district":"갑","district_label":"화성시갑"},"geometry":{"type":"Polygon","coordinates":[[[126.99913797382357,37.12363515812487],[126.99677383667415,37.124733081404315],[126.99732215511207,37.12788674095631],[126.99311934592698,37.129808011417225],[126.99057882108823,37.12871880537309],[126.98720876834506,37.129721745041515],[126.98213914233189,37.1351949450913],[126.98222387535303,37.1414499856636],[126.9790664319006,37.14317976500863],[126.97422151109444,37.14331554179188],[126.96917074820259,37.14471169295256],[126.96657827793999,37.14358230533961],[126.95855502595832,37.14254651844625],[126.95254550562686,37.14552958812105],[126.95238380240632,37.14813842570256],[126.94602974677332,37.150577630712554],[126.94520617454809,37.14529264912857],[126.94182745288708,37.14307622864222],[126.93568283303456,37.14547529677059],[126.93297439758177,37.14354011620106],[126.93059510921017,37.14353208497546],[126.9288243397768,37.14616587508159],[126.92247563484949,37.142547453487204],[126.92056715236318,37.14271161530458],[126.914095774507,37.14022801523481],[126.91049428773042,37.140660862623506],[126.91162476701881,37.14752732139165],[126.90638609421514,37.149557534780534],[126.90351626449045,37.147996087690494],[126.89877560512748,37.141050452855325],[126.89599900397803,37.138628455949856],[126.89483530331636,37.13495712811351],[126.89240901788243,37.13532672351216],[126.8868691912279,37.1243271090529],[126.88967653352059,37.12228837659647],[126.88984985706192,37.11620707067546],[126.88511742432327,37.107072729204816],[126.88833423683175,37.1032099118654],[126.88684459924154,37.1000540322482],[126.87983078331644,37.09349459390715],[126.87827666789559,37.08926456527573],[126.87852711338621,37.085552025422174],[126.88182583372341,37.076030392999],[126.88376283917516,37.066483933191584],[126.89169371659375,37.06711196087058],[126.90082458986697,37.07009480876926],[126.90491409371272,37.073637689690514],[126.90921179914643,37.07604117232418],[126.91105054205977,37.07857879559866],[126.91659860097579,37.080203979280384],[126.92069504922887,37.079951380017036],[126.92685029715292,37.08185172810619],[126.92721011259573,37.08749487081747],[126.92567101992385,37.09900561754501],[126.9312132922794,37.10173883049318],[126.93318825968008,37.10568231973322],[126.93634449188811,37.10561012205015],[126.93822522416333,37.10344212996757],[126.94585977766293,37.09995802552191],[126.94482123991898,37.093351428605175],[126.9498873598758,37.09214684604813],[126.95319754552241,37.09275258383471],[126.95460378117745,37.097312343552176],[126.95446168825262,37.107046092269215],[126.95810334202984,37.108694119026005],[126.96656711538787,37.10804571030962],[126.96831486435855,37.10736005602963],[126.97144749944343,37.10908675206443],[126.97213349567892,37.11368927168583],[126.97579794516909,37.1197416389199],[126.97646372374628,37.12267079573162],[126.980285458116,37.119813922023944],[126.98735515217314,37.120849085010086],[126.99228342686823,37.11948662094441],[126.99487807221296,37.12276645987506],[126.9980983283942,37.12308776706459],[126.99913797382357,37.12363515812487]]]}},{"type":"Feature","properties":{"emd_cd":"4159125600","emd_nm":"남양읍","sgg_cd":"41591","sgg_nm":"화성시","district":"갑","district_label":"화성시갑"},"geometry":{"type":"Polygon","coordinates":[[[126.86332733173724,37.201329046876324],[126.86579695447625,37.20430129592803],[126.86696257911933,37.20943640843394],[126.86536841847062,37.21173542994755],[126.85690599263823,37.21422270953225],[126.85095810532442,37.22310056783638],[126.84997582786534,37.2261531332226],[126.84523241539311,37.229156814219586],[126.8409314698871,37.22928506258474],[126.83913256553127,37.232133575938306],[126.82898577171855,37.229620226156364],[126.82680808958452,37.23541855642016],[126.82370121235066,37.236848614375454],[126.82711796849837,37.24286457262574],[126.82637230982972,37.24865626238106],[126.82754842794432,37.2518758317937],[126.83076517656885,37.25363993359062],[126.83442513290662,37.25443118214341],[126.8340586621866,37.25770127088293],[126.83837706384195,37.26383345951641],[126.84124633843676,37.26632237666249],[126.83741140378613,37.270691559930924],[126.83548005695094,37.270963682838016],[126.83117698299846,37.27367136556995],[126.82893885795721,37.2706682270924],[126.82556250184123,37.27142958760347],[126.82002833492697,37.27590558645286],[126.81178278984717,37.27904841729615],[126.80981523185883,37.280578538748756],[126.81098730530624,37.28326849235459],[126.81385290906863,37.28504136443538],[126.81061338665515,37.28677876735512],[126.804487668692,37.28365977911975],[126.80260725694566,37.282936915465235],[126.80056776907816,37.27781066462971],[126.80502316870648,37.27491529868852],[126.80927769437848,37.2668085891995],[126.80217170425617,37.26963106402892],[126.79613830634243,37.27091812376093],[126.79011038211964,37.26732166578365],[126.79274247889492,37.25880243829328],[126.7880917065306,37.25517465802262],[126.78952378023182,37.247824570675206],[126.78936229592827,37.24437467419778],[126.77806327506215,37.245949095728285],[126.77829702582703,37.239245332302744],[126.78309806481168,37.23437094574413],[126.78641070349616,37.232984768457015],[126.79050652212469,37.23256891152207],[126.79523293358858,37.22652958589998],[126.79803289961498,37.22430175490481],[126.79932880836824,37.22189947413598],[126.79926463004652,37.2190945025402],[126.80185689361754,37.2140608872754],[126.79627056670255,37.21046620180169],[126.7913973801715,37.201631424191326],[126.79066109949736,37.19931631478885],[126.79194188152023,37.19580177931933],[126.79552935062901,37.19328912066494],[126.7982530865925,37.1925503493734],[126.79710503013769,37.1888808779548],[126.79728173676703,37.1863258169843],[126.7955674164637,37.17971432291861],[126.79259231002017,37.17658227049723],[126.79200481334499,37.17314556348512],[126.79618935453729,37.17043023982663],[126.79576327248452,37.16619904841053],[126.79760292295896,37.162448850715606],[126.79498958584078,37.15824520282931],[126.78831623415735,37.15522506117787],[126.78553341913316,37.154901841293295],[126.78180140980287,37.152763246832926],[126.7827599495105,37.15120737525601],[126.79031522357675,37.149547757766655],[126.79477082880703,37.150878330144565],[126.79953537712937,37.15359048540151],[126.80451185855718,37.151467719898996],[126.8054960933244,37.14891014312663],[126.82110082931874,37.150375182948004],[126.82459255172562,37.1495714757622],[126.8338196493542,37.15050820101002],[126.83840664429907,37.152584561000985],[126.84302550638975,37.15522773176019],[126.84517983650615,37.158607587324894],[126.84765052284621,37.160392403769166],[126.85913988451162,37.16536886494778],[126.86270253032426,37.168812279282],[126.86250475467011,37.170650074439116],[126.8647400729349,37.17408402495055],[126.86452771677632,37.17556008008472],[126.85987905744008,37.178801485977914],[126.85678726956363,37.18471933343867],[126.8578658741909,37.18772797020253],[126.86068934450947,37.19101081129485],[126.8597793118695,37.19312191627581],[126.8617354027403,37.19874925353264],[126.86332733173724,37.201329046876324]]]}},{"type":"Feature","properties":{"emd_cd":"4159331000","emd_nm":"매송면","sgg_cd":"41593","sgg_nm":"화성시","district":"갑","district_label":"화성시갑"},"geometry":{"type":"Polygon","coordinates":[[[126.92737455910199,37.278797346317106],[126.91756428308713,37.28539383570354],[126.91385491766198,37.291468905902164],[126.91198472800116,37.29014922986046],[126.90554556446901,37.28988721177487],[126.90149946513064,37.29097665252567],[126.89841236208623,37.293997542886615],[126.89954818777986,37.290203972228724],[126.89641092697711,37.2889948062494],[126.89287268615857,37.28645155338625],[126.89091301320349,37.28202036041897],[126.88618096081777,37.280528887961545],[126.88330085015856,37.282181482241356],[126.87969351242724,37.28566682167373],[126.8782701525348,37.2824659725279],[126.87815434424299,37.27923406705337],[126.87132164343637,37.274709068262325],[126.8582243085853,37.27417795776812],[126.85272497796203,37.27203661068024],[126.85703990313203,37.26937790536372],[126.85856736749467,37.26988696576256],[126.86635587796208,37.2643583355971],[126.86657997953355,37.26133425112619],[126.8698416837019,37.259437272364785],[126.8743885717168,37.26036611073632],[126.8776764632126,37.258063592126135],[126.88746695857053,37.25624539126167],[126.88960392848412,37.25108920640244],[126.89483144760632,37.24927720145926],[126.89900644723889,37.24295717268704],[126.90390108752678,37.24296050540558],[126.90485465844176,37.241239134370794],[126.91236912205225,37.23860293362009],[126.91589907963323,37.24156341839455],[126.92531194764538,37.238408398301225],[126.92524707890648,37.23452418836613],[126.92812718530674,37.23529982107077],[126.92962533105212,37.23789742962446],[126.9306708499979,37.24269562508208],[126.93391468611503,37.24362651079406],[126.93955509495086,37.242161114009726],[126.94236149013402,37.23929365502354],[126.94613979880121,37.23913636659063],[126.94802647328322,37.242567096357796],[126.95384215753904,37.24285659360508],[126.95667789024778,37.245188443536215],[126.9533657525033,37.24812870864571],[126.95224433524223,37.25147262969224],[126.94998261312715,37.25381883601669],[126.95004611715697,37.255843884866394],[126.94652972524321,37.2575040886718],[126.9435877824963,37.25684242389027],[126.93577695359531,37.25677165741207],[126.93084573671328,37.261042058333445],[126.92900819260379,37.26365626709575],[126.9272646844167,37.27143133965148],[126.92868182060445,37.27671912876092],[126.92737455910199,37.278797346317106]]]}},{"type":"Feature","properties":{"emd_cd":"4159332000","emd_nm":"비봉면","sgg_cd":"41593","sgg_nm":"화성시","district":"갑","district_label":"화성시갑"},"geometry":{"type":"Polygon","coordinates":[[[126.91236912205225,37.23860293362009],[126.90485465844176,37.241239134370794],[126.90390108752678,37.24296050540558],[126.89900644723889,37.24295717268704],[126.89483144760632,37.24927720145926],[126.88960392848412,37.25108920640244],[126.88746695857053,37.25624539126167],[126.8776764632126,37.258063592126135],[126.8743885717168,37.26036611073632],[126.8698416837019,37.259437272364785],[126.86657997953355,37.26133425112619],[126.86635587796208,37.2643583355971],[126.85856736749467,37.26988696576256],[126.85703990313203,37.26937790536372],[126.85272497796203,37.27203661068024],[126.84646891260701,37.26587384936587],[126.84522980099607,37.26589565954371],[126.84124633843676,37.26632237666249],[126.83837706384195,37.26383345951641],[126.8340586621866,37.25770127088293],[126.83442513290662,37.25443118214341],[126.83076517656885,37.25363993359062],[126.82754842794432,37.2518758317937],[126.82637230982972,37.24865626238106],[126.82711796849837,37.24286457262574],[126.82370121235066,37.236848614375454],[126.82680808958452,37.23541855642016],[126.82898577171855,37.229620226156364],[126.83913256553127,37.232133575938306],[126.8409314698871,37.22928506258474],[126.84523241539311,37.229156814219586],[126.84997582786534,37.2261531332226],[126.85095810532442,37.22310056783638],[126.85690599263823,37.21422270953225],[126.86536841847062,37.21173542994755],[126.86696257911933,37.20943640843394],[126.86579695447625,37.20430129592803],[126.86332733173724,37.201329046876324],[126.87053609823495,37.198212755674895],[126.87590277023014,37.19383877791153],[126.87853371348925,37.19425164335495],[126.88230088102269,37.19724145462662],[126.88892048260796,37.197026405937805],[126.89416974861608,37.193029419843185],[126.89843003586182,37.19505405782127],[126.89990363128334,37.19404073115911],[126.9035303001576,37.198421756229216],[126.90610670798111,37.19920429905833],[126.90834345198421,37.20741997945307],[126.90757825806126,37.21150108154342],[126.90468542799849,37.213918125251354],[126.90336993875583,37.216827526217294],[126.90536497276922,37.218341762719945],[126.90942603256605,37.22422341075596],[126.90726486269031,37.2333741684365],[126.91211947539776,37.23554028554214],[126.91236912205225,37.23860293362009]]]}},{"type":"Feature","properties":{"emd_cd":"4159131000","emd_nm":"마도면","sgg_cd":"41591","sgg_nm":"화성시","district":"갑","district_label":"화성시갑"},"geometry":{"type":"Polygon","coordinates":[[[126.78641070349616,37.232984768457015],[126.78173731882099,37.234390867755934],[126.78250716591485,37.22839679353002],[126.78142493099958,37.226993078872454],[126.77283113801336,37.21944106546843],[126.77263348140393,37.21501948388355],[126.77426693144628,37.21251361468311],[126.77269268433432,37.210308002417754],[126.76843756870339,37.21089699792303],[126.76182876089099,37.21072078769426],[126.76061933831943,37.20790766581384],[126.75759752000668,37.20584260762115],[126.75504474522846,37.207521195527555],[126.75385854803312,37.21146519840803],[126.75038357011292,37.211287768576355],[126.7494816860754,37.206687220252384],[126.74658326440641,37.20506548207283],[126.74358863325423,37.20610323597982],[126.73876286163483,37.20517659689449],[126.73350726756837,37.20315626852946],[126.72898728133697,37.202236814320784],[126.72835030885588,37.19846147528471],[126.71893322393582,37.19442242405583],[126.72041736249001,37.18841659137224],[126.71637432471552,37.18493195206457],[126.71514995445277,37.18177791732556],[126.71863161947206,37.17638578407916],[126.7259604755843,37.17616777022589],[126.72666090518197,37.17400582548813],[126.73292620064773,37.16925450994249],[126.73540774809474,37.16960293848931],[126.74263815047507,37.16673448228423],[126.74680405788659,37.161709846368275],[126.7465167134666,37.1654837319657],[126.74923342867628,37.1668823571325],[126.75304355203188,37.16671602444819],[126.7589273836793,37.16490059586066],[126.7664394210594,37.164218330448826],[126.77797610534402,37.16467678538359],[126.78492642490873,37.17017464182491],[126.79035464617358,37.175321581352264],[126.79530781596168,37.18136008026209],[126.79710503013769,37.1888808779548],[126.7982530865925,37.1925503493734],[126.79552935062901,37.19328912066494],[126.79194188152023,37.19580177931933],[126.79066109949736,37.19931631478885],[126.7913973801715,37.201631424191326],[126.79627056670255,37.21046620180169],[126.80185689361754,37.2140608872754],[126.79926463004652,37.2190945025402],[126.79932880836824,37.22189947413598],[126.79803289961498,37.22430175490481],[126.79523293358858,37.22652958589998],[126.79050652212469,37.23256891152207],[126.78641070349616,37.232984768457015]]]}},{"type":"Feature","properties":{"emd_cd":"4159132000","emd_nm":"송산면","sgg_cd":"41591","sgg_nm":"화성시","district":"갑","district_label":"화성시갑"},"geometry":{"type":"MultiPolygon","coordinates":[[[[126.78173731882099,37.234390867755934],[126.77761226228922,37.237904762029444],[126.7758917985021,37.24679102814826],[126.77247515291765,37.249014534914],[126.76753961280235,37.2483215882535],[126.76386592314451,37.252812489750546],[126.75700779335006,37.25504789974963],[126.74893364469531,37.25578002208032],[126.7407115170711,37.255150704560435],[126.73403087558412,37.250349498974465],[126.72941738958453,37.254462514256694],[126.72782268722257,37.254233568272895],[126.72658991344882,37.257829922388275],[126.71913947738186,37.25611684309137],[126.71425685951714,37.25677973019982],[126.70899372002923,37.25864096142477],[126.70411372982487,37.258628539684814],[126.69856421759266,37.26153861481507],[126.69312019610082,37.26152417105522],[126.69086341433713,37.26256788867528],[126.68673297013392,37.262706341796275],[126.6848696575481,37.25940349526621],[126.6811246522867,37.25721884947496],[126.67979620956176,37.260588696922184],[126.6769062597962,37.26073201504122],[126.67539870024535,37.257428113313274],[126.6802848729785,37.256017591502605],[126.67660683867086,37.24647462078983],[126.66993930158999,37.242848461482026],[126.6671437620187,37.24439723310146],[126.65498084751789,37.24681353831979],[126.65615000052392,37.24800716253891],[126.65237439495056,37.25075418603839],[126.64976982079938,37.25158941197718],[126.64808034245569,37.24901074918441],[126.65144223960138,37.2387952240135],[126.6555734658693,37.23475505065572],[126.65670286780956,37.23780072248048],[126.66131252823857,37.238231196325586],[126.66452886583822,37.23678580849319],[126.66476785955078,37.233643501942055],[126.66857318758643,37.229162668641905],[126.6714881357408,37.23029517817015],[126.6773847055116,37.22359506444109],[126.67556745317557,37.2211081566001],[126.66613229873887,37.21684491711039],[126.66539814226766,37.211681663996494],[126.6663769743144,37.208374840132976],[126.6712332039391,37.201631618822994],[126.67341809670455,37.199738199885076],[126.67693576772749,37.20091759540366],[126.67894385480479,37.20395455656352],[126.67921390472783,37.20717775824327],[126.68417822182727,37.20945200690416],[126.68843599672167,37.20754777347505],[126.69021437690883,37.21302460034572],[126.69174691484616,37.214298134470944],[126.69897814779657,37.21404638644391],[126.69283184323059,37.206547975987675],[126.69192718504459,37.20314138335809],[126.6969828181095,37.204019833943214],[126.70157348904068,37.20057468101265],[126.70080144837864,37.19678138810401],[126.70609598817248,37.19280579335621],[126.71500609330671,37.197579450245435],[126.71727973180896,37.194545542174914],[126.71893322393582,37.19442242405583],[126.72835030885588,37.19846147528471],[126.72898728133697,37.202236814320784],[126.73350726756837,37.20315626852946],[126.73876286163483,37.20517659689449],[126.74358863325423,37.20610323597982],[126.74658326440641,37.20506548207283],[126.7494816860754,37.206687220252384],[126.75038357011292,37.211287768576355],[126.75385854803312,37.21146519840803],[126.75504474522846,37.207521195527555],[126.75759752000668,37.20584260762115],[126.76061933831943,37.20790766581384],[126.76182876089099,37.21072078769426],[126.76843756870339,37.21089699792303],[126.77269268433432,37.210308002417754],[126.77426693144628,37.21251361468311],[126.77263348140393,37.21501948388355],[126.77283113801336,37.21944106546843],[126.78142493099958,37.226993078872454],[126.78250716591485,37.22839679353002],[126.78173731882099,37.234390867755934]]],[[[126.67280464999918,37.27360738549692],[126.68058067730612,37.27483476252885],[126.68496875543411,37.2806180913855],[126.68016653852193,37.283904200514584],[126.67285647261485,37.2808856080024],[126.66668475773372,37.27532027140514],[126.66875816095292,37.273452101038075],[126.67280464999918,37.27360738549692]]],[[[126.74061818796707,37.289004826445556],[126.73665967018617,37.28832135011213],[126.7347540177562,37.285936085207915],[126.73423006208877,37.2830922490638],[126.73752173279148,37.28352594060313],[126.74491085411728,37.283008821846956],[126.74588762712902,37.28361559070804],[126.74538358956491,37.28798519216027],[126.74246466514818,37.287658751098675],[126.74061818796707,37.289004826445556]]]]}},{"type":"Feature","properties":{"emd_cd":"4159133000","emd_nm":"서신면","sgg_cd":"41591","sgg_nm":"화성시","district":"갑","district_label":"화성시갑"},"geometry":{"type":"MultiPolygon","coordinates":[[[[126.62464364318319,37.17687345812151],[126.62182306899213,37.17897695730503],[126.61845377560131,37.177165586291174],[126.61621853817552,37.17328761957936],[126.61747160020903,37.161792991214206],[126.61688424984678,37.15917412595396],[126.61821298777089,37.15759690844408],[126.62240443239827,37.16314565365243],[126.62602183562934,37.165961061463996],[126.62848957521676,37.169113815986066],[126.6306152952331,37.17380876568049],[126.62464364318319,37.17687345812151]]],[[[126.71893322393582,37.19442242405583],[126.71727973180896,37.194545542174914],[126.71500609330671,37.197579450245435],[126.70609598817248,37.19280579335621],[126.70080144837864,37.19678138810401],[126.70157348904068,37.20057468101265],[126.6969828181095,37.204019833943214],[126.68658245248625,37.20220673408113],[126.68035298828454,37.1996072360288],[126.67796391542399,37.19761326083817],[126.67026784114285,37.19704469038053],[126.67120929905117,37.19438903270761],[126.66212561744048,37.1967744257518],[126.6602717416673,37.1960413163319],[126.65727472840905,37.190957637476004],[126.65017623685806,37.18526986094142],[126.65050403134354,37.18253311898969],[126.65411181865323,37.183674300870955],[126.65450988870631,37.18586085414372],[126.65835620714665,37.189890402936776],[126.66472709155555,37.191465597815295],[126.66615164694338,37.18903400105014],[126.66467292134661,37.18238372921873],[126.66291790370008,37.1813989691764],[126.66085991044551,37.178026803841114],[126.65850247259444,37.17842240234823],[126.65462466993354,37.18137501478073],[126.65312213996935,37.180239801264854],[126.65555248247406,37.17766002154389],[126.65586075899189,37.17349326353317],[126.65765212872128,37.16737320377773],[126.660651472889,37.162111207093055],[126.65785430067972,37.15923958222155],[126.65037058176485,37.157101696133566],[126.6493357785862,37.15454325643942],[126.65485230669573,37.152972689121235],[126.66057554781678,37.15439925684775],[126.66392658787954,37.15656826064339],[126.67012296984883,37.15570478666178],[126.68261061298247,37.160366123935155],[126.68360091588292,37.163246164267754],[126.68931380124164,37.16749158346638],[126.68416720837706,37.15967829550447],[126.69073364921687,37.15718363889551],[126.69449976326752,37.15236428940336],[126.68988847377186,37.15083542632243],[126.68371239761066,37.14973616334006],[126.67901328073731,37.140733681722175],[126.67350912136128,37.137992378365354],[126.67369624003577,37.13469907859248],[126.67744024063144,37.13497412984503],[126.68192892626796,37.128438394063195],[126.68449983501378,37.11958758561498],[126.68368234116424,37.117426487053265],[126.68088825898917,37.11559844984055],[126.67791071028734,37.11503067804924],[126.68326670042528,37.111519451761474],[126.68612820151787,37.111924478183454],[126.68837721660573,37.1139568287079],[126.68847871781121,37.11611632936647],[126.69237599532855,37.11916714096342],[126.6982429173479,37.11978943764939],[126.70483854238078,37.12313726609777],[126.70502603375722,37.12878874395846],[126.70639413653441,37.131039729346796],[126.71129571319388,37.13109610522425],[126.71378061074829,37.129426992941156],[126.71922410094474,37.1319959060495],[126.72108265664349,37.13574668967695],[126.72806698316816,37.13875918346842],[126.7320829384013,37.14641892096748],[126.73113662558934,37.14910458653119],[126.73752498131788,37.14973514652052],[126.74257923921812,37.153801312330806],[126.74246593031904,37.15485859403999],[126.74588629959003,37.159074170658116],[126.74680405788659,37.161709846368275],[126.74263815047507,37.16673448228423],[126.73540774809474,37.16960293848931],[126.73292620064773,37.16925450994249],[126.72666090518197,37.17400582548813],[126.7259604755843,37.17616777022589],[126.71863161947206,37.17638578407916],[126.71514995445277,37.18177791732556],[126.71637432471552,37.18493195206457],[126.72041736249001,37.18841659137224],[126.71893322393582,37.19442242405583]]]]}},{"type":"Feature","properties":{"emd_cd":"4159134000","emd_nm":"팔탄면","sgg_cd":"41591","sgg_nm":"화성시","district":"갑","district_label":"화성시갑"},"geometry":{"type":"Polygon","coordinates":[[[126.89990363128334,37.19404073115911],[126.89843003586182,37.19505405782127],[126.89416974861608,37.193029419843185],[126.88892048260796,37.197026405937805],[126.88230088102269,37.19724145462662],[126.87853371348925,37.19425164335495],[126.87590277023014,37.19383877791153],[126.87053609823495,37.198212755674895],[126.86332733173724,37.201329046876324],[126.8617354027403,37.19874925353264],[126.8597793118695,37.19312191627581],[126.86068934450947,37.19101081129485],[126.8578658741909,37.18772797020253],[126.85678726956363,37.18471933343867],[126.85987905744008,37.178801485977914],[126.86452771677632,37.17556008008472],[126.8647400729349,37.17408402495055],[126.86250475467011,37.170650074439116],[126.86270253032426,37.168812279282],[126.85913988451162,37.16536886494778],[126.84765052284621,37.160392403769166],[126.84517983650615,37.158607587324894],[126.84302550638975,37.15522773176019],[126.83840664429907,37.152584561000985],[126.84544876690441,37.14879159640958],[126.84943681130804,37.14513807623871],[126.84994625128455,37.141858629509656],[126.84598977369762,37.139082104691084],[126.84145428443702,37.13723374060177],[126.84148951138384,37.13251958226076],[126.84869560997434,37.127914893016914],[126.84817784362748,37.12355712151511],[126.84998088965632,37.12102842993462],[126.85607326877981,37.11582786964491],[126.85920484301884,37.1121163780998],[126.86278343044768,37.11116770599991],[126.86581088039648,37.104202577122756],[126.87556249023586,37.101905025365156],[126.87675988955505,37.097235245220496],[126.87983078331644,37.09349459390715],[126.88684459924154,37.1000540322482],[126.88833423683175,37.1032099118654],[126.88511742432327,37.107072729204816],[126.88984985706192,37.11620707067546],[126.88967653352059,37.12228837659647],[126.8868691912279,37.1243271090529],[126.89240901788243,37.13532672351216],[126.89483530331636,37.13495712811351],[126.89599900397803,37.138628455949856],[126.89877560512748,37.141050452855325],[126.90351626449045,37.147996087690494],[126.90638609421514,37.149557534780534],[126.91162476701881,37.14752732139165],[126.91049428773042,37.140660862623506],[126.914095774507,37.14022801523481],[126.92056715236318,37.14271161530458],[126.92247563484949,37.142547453487204],[126.9288243397768,37.14616587508159],[126.92906378520084,37.14792247189162],[126.93405394022838,37.150247248426275],[126.9366134590224,37.157118006561376],[126.93551903737296,37.161172185157994],[126.92610525852074,37.16102136081029],[126.92041811681123,37.154506979509804],[126.91699006454567,37.155736368330935],[126.9148731385553,37.15997533516586],[126.91553573199982,37.16590381260215],[126.92134685572134,37.16831204108202],[126.91945943406553,37.17052702339826],[126.9172135468884,37.175862394066385],[126.92105609549691,37.17920183245744],[126.92150556638441,37.18295273788403],[126.91979510452771,37.18794377402819],[126.91997010101714,37.18964602739258],[126.91484642661902,37.19184503949235],[126.90420762250497,37.192444410179135],[126.89990363128334,37.19404073115911]]]}},{"type":"Feature","properties":{"emd_cd":"4159135000","emd_nm":"장안면","sgg_cd":"41591","sgg_nm":"화성시","district":"갑","district_label":"화성시갑"},"geometry":{"type":"Polygon","coordinates":[[[126.87983078331644,37.09349459390715],[126.87675988955505,37.097235245220496],[126.87556249023586,37.101905025365156],[126.86581088039648,37.104202577122756],[126.86278343044768,37.11116770599991],[126.85920484301884,37.1121163780998],[126.85607326877981,37.11582786964491],[126.84998088965632,37.12102842993462],[126.84817784362748,37.12355712151511],[126.84869560997434,37.127914893016914],[126.84148951138384,37.13251958226076],[126.84145428443702,37.13723374060177],[126.84598977369762,37.139082104691084],[126.84994625128455,37.141858629509656],[126.84943681130804,37.14513807623871],[126.84544876690441,37.14879159640958],[126.83840664429907,37.152584561000985],[126.8338196493542,37.15050820101002],[126.82459255172562,37.1495714757622],[126.82110082931874,37.150375182948004],[126.8054960933244,37.14891014312663],[126.80764677975749,37.144353728007445],[126.81512252190853,37.143054069711816],[126.81194994624018,37.13941430700983],[126.824259014606,37.12962712557636],[126.82392416684196,37.12700663213541],[126.82859835942472,37.123718205714184],[126.83103644953206,37.11753601017245],[126.81482949178971,37.116472181815645],[126.81385361231715,37.11609798851088],[126.81483647895593,37.10843504177482],[126.82227582294347,37.105441175288796],[126.82492074078361,37.10265062423983],[126.82978145443661,37.10212270489823],[126.83361415355047,37.098819217070584],[126.82750641367427,37.09587656805571],[126.82903110124987,37.091246818805836],[126.8263898122585,37.08687918835447],[126.82392058508181,37.086498396747956],[126.8233501498897,37.08366136959942],[126.81474924157168,37.07993079760667],[126.81024197584146,37.081174534934746],[126.80688752978156,37.079665394140434],[126.80725082339112,37.074590308545766],[126.81043958495582,37.07302236350325],[126.81206756928013,37.070796668858684],[126.80533734872613,37.06691709869171],[126.8001243769138,37.06608083279622],[126.79581853458825,37.058754505570214],[126.79582398611387,37.05632141856599],[126.80101703652129,37.05258253313896],[126.80277422994926,37.049153185279984],[126.8101652688598,37.04756595249235],[126.81248083541418,37.04129312948523],[126.81275169579973,37.02558745687113],[126.80661893791662,37.02558332891339],[126.80644038502189,37.016547788245376],[126.80685368241353,37.01272366026244],[126.82101260580427,37.01337566611827],[126.83806378381279,37.01365453371029],[126.84692522269957,37.015849018482555],[126.85310775280576,37.02000238905766],[126.86071574182878,37.029886122071666],[126.87291425442587,37.047267448899504],[126.87583403912559,37.05068796269668],[126.88253426991315,37.06080540859113],[126.88376283917516,37.066483933191584],[126.88182583372341,37.076030392999],[126.87852711338621,37.085552025422174],[126.87827666789559,37.08926456527573],[126.87983078331644,37.09349459390715]]]}},{"type":"Feature","properties":{"emd_cd":"4159136000","emd_nm":"양감면","sgg_cd":"41591","sgg_nm":"화성시","district":"갑","district_label":"화성시갑"},"geometry":{"type":"Polygon","coordinates":[[[126.99512804999782,37.07004808930581],[126.99172606070108,37.08477063740135],[126.99359342685008,37.08958206752882],[126.99777231765893,37.09126408454222],[126.99888221263488,37.093166268578294],[126.99702502485582,37.097817613987885],[126.99830804440207,37.100568995660765],[126.99785335856164,37.10445330875611],[126.99572816194984,37.10820432533339],[126.99665501533205,37.111983000783184],[127.00041216366186,37.11786029527405],[127.00205319773579,37.12176920081098],[126.9980983283942,37.12308776706459],[126.99487807221296,37.12276645987506],[126.99228342686823,37.11948662094441],[126.98735515217314,37.120849085010086],[126.980285458116,37.119813922023944],[126.97646372374628,37.12267079573162],[126.97579794516909,37.1197416389199],[126.97213349567892,37.11368927168583],[126.97144749944343,37.10908675206443],[126.96831486435855,37.10736005602963],[126.96656711538787,37.10804571030962],[126.95810334202984,37.108694119026005],[126.95446168825262,37.107046092269215],[126.95460378117745,37.097312343552176],[126.95319754552241,37.09275258383471],[126.9498873598758,37.09214684604813],[126.94482123991898,37.093351428605175],[126.94585977766293,37.09995802552191],[126.93822522416333,37.10344212996757],[126.93634449188811,37.10561012205015],[126.93318825968008,37.10568231973322],[126.9312132922794,37.10173883049318],[126.92567101992385,37.09900561754501],[126.92721011259573,37.08749487081747],[126.92685029715292,37.08185172810619],[126.92069504922887,37.079951380017036],[126.91659860097579,37.080203979280384],[126.91105054205977,37.07857879559866],[126.90921179914643,37.07604117232418],[126.90491409371272,37.073637689690514],[126.9063042816026,37.06928855125796],[126.91039406605958,37.06882669192409],[126.91487832652764,37.06577286469216],[126.91941604840939,37.065188894333545],[126.92715371487616,37.06787894370931],[126.93023889055513,37.0671045357256],[126.93199735086152,37.06255793723992],[126.94038363174214,37.060812982122464],[126.94409063359001,37.06329805525001],[126.94549324301518,37.06556077903137],[126.95136834241606,37.06856053471141],[126.95644783736903,37.06826807108053],[126.96115232630818,37.06980955782747],[126.96640427504788,37.069106529253865],[126.96882702218485,37.07342726688679],[126.9755436606324,37.070601960732105],[126.98462666589226,37.0716502390414],[126.98759825141184,37.070451827335305],[126.99512804999782,37.07004808930581]]]}},{"type":"Feature","properties":{"emd_cd":"4159333000","emd_nm":"정남면","sgg_cd":"41593","sgg_nm":"화성시","district":"갑","district_label":"화성시갑"},"geometry":{"type":"Polygon","coordinates":[[[126.9842175984551,37.195726780358086],[126.97879990309069,37.1980771390744],[126.97516123768986,37.19651629412026],[126.97268050253395,37.19657175643205],[126.96787876728062,37.19830464107385],[126.96186022561425,37.19685661034602],[126.95414376963517,37.19598361889756],[126.95020457981016,37.193864705676624],[126.95265862594043,37.1892821192202],[126.95002504070895,37.185198962144966],[126.94947167427998,37.18276377244485],[126.95160811603775,37.17787112527387],[126.95139303482242,37.17490809980533],[126.94860365926786,37.17421666044887],[126.94424079884195,37.17106633807198],[126.9456728354642,37.164662705862206],[126.94492012723966,37.15939384218487],[126.94324152902406,37.15725526491368],[126.94303126633287,37.1542537181469],[126.94602974677332,37.150577630712554],[126.95238380240632,37.14813842570256],[126.95254550562686,37.14552958812105],[126.95855502595832,37.14254651844625],[126.96657827793999,37.14358230533961],[126.96917074820259,37.14471169295256],[126.97422151109444,37.14331554179188],[126.9790664319006,37.14317976500863],[126.98222387535303,37.1414499856636],[126.98213914233189,37.1351949450913],[126.98720876834506,37.129721745041515],[126.99057882108823,37.12871880537309],[126.99311934592698,37.129808011417225],[126.99732215511207,37.12788674095631],[126.99677383667415,37.124733081404315],[126.99913797382357,37.12363515812487],[127.00243007622905,37.12438150518084],[127.00537499654037,37.128096389779444],[127.0134601939253,37.128976050583766],[127.01750491168617,37.129923292449085],[127.02421863640261,37.133221394188865],[127.02887179386084,37.133374145400055],[127.03039621007055,37.13457227581912],[127.03563343269566,37.136019580557736],[127.03257294876185,37.1401968847175],[127.03034319402322,37.146450438419436],[127.02998127086526,37.15000394773649],[127.02783434211463,37.153794922249325],[127.02879470555537,37.15498404140759],[127.0304867791237,37.156007184235925],[127.02975744049786,37.15875914346949],[127.0269744188379,37.16066126629116],[127.02809505248347,37.163121926457094],[127.02402318825135,37.16526117348183],[127.01662683318271,37.1678454793493],[127.01239135073811,37.167568971995635],[127.00653029279879,37.168064181800894],[126.99966780348663,37.17374240744234],[126.9952535935849,37.17501377206125],[126.99649720676064,37.178461362466315],[126.99976996436222,37.177576071396665],[127.0030091093062,37.17913793969035],[127.00242608866436,37.18204803992761],[127.00784506905812,37.18699690420797],[127.0070192394596,37.18773262418657],[126.99766654836188,37.19049445354506],[126.99744336176602,37.1925070199337],[126.99522310848442,37.19397024975787],[126.98538565077718,37.194931862715116],[126.9842175984551,37.195726780358086]]]}},{"type":"Feature","properties":{"emd_cd":"4159756000","emd_nm":"동탄6동","sgg_cd":"41597","sgg_nm":"화성시","district":"을","district_label":"화성시을"},"geometry":{"type":"Polygon","coordinates":[[[127.09101567294364,37.16477925501155],[127.09546240765813,37.174498388609685],[127.09814722483988,37.17744036940675],[127.10346717943186,37.17781242379204],[127.11151380817074,37.180018959322176],[127.11691011777306,37.183505681317236],[127.11317291642261,37.183959231633374],[127.10843041196799,37.18434419727455],[127.10274495325557,37.18661429627568],[127.10323609730096,37.18960855491049],[127.09875205873674,37.19090275237167],[127.09892058992234,37.20474996493321],[127.08626796937,37.20472583327431],[127.08347298241424,37.200475764279155],[127.08384555826612,37.19726342622893],[127.08276711816522,37.19423428692361],[127.08419229671081,37.189129444813396],[127.08361453028797,37.18419784218369],[127.07918066607348,37.18482222227762],[127.07858658761943,37.18604034510472],[127.0730734962434,37.18709440901572],[127.07105904208225,37.18403760461313],[127.07213953856551,37.182019453450884],[127.07221798246965,37.17597583085148],[127.07072820079858,37.173923371130456],[127.07127447117107,37.16820649885931],[127.07346781981225,37.16549208242125],[127.07784152005368,37.162315367546014],[127.07987794417186,37.161353139936004],[127.08895355840001,37.160524542726584],[127.09101567294364,37.16477925501155]]]}},{"type":"Feature","properties":{"emd_cd":"4159551000","emd_nm":"진안동","sgg_cd":"41595","sgg_nm":"화성시","district":"병","district_label":"화성시병"},"geometry":{"type":"MultiPolygon","coordinates":[[[[127.05040747069674,37.196326586017896],[127.04994079912281,37.19794748708186],[127.05297085923019,37.20147769076507],[127.05282704457214,37.20293404334265],[127.04867104013265,37.20711984954612],[127.04789459284389,37.20497277768135],[127.04441836609088,37.20221129891535],[127.04410901747382,37.19827669505852],[127.04250711207189,37.19763832290502],[127.04609860011163,37.196263973755386],[127.05040747069674,37.196326586017896]]],[[[127.04498933939965,37.233173413920106],[127.03912169709646,37.23723913429771],[127.04262323978682,37.24675055836817],[127.04042368328864,37.24632621013356],[127.03968326246633,37.24350305425567],[127.03713719682615,37.24050047331228],[127.0366998915232,37.238400803242776],[127.02964391368278,37.23201023832599],[127.02289852640207,37.22951454847343],[127.02396855255314,37.22741521171425],[127.02262819268907,37.224897164093015],[127.02622840207319,37.220028281996605],[127.02595755657356,37.21537853588072],[127.0289093571453,37.211230025927264],[127.02113753212998,37.20840792077138],[127.02366258150971,37.206164523873845],[127.02381450608623,37.20417645881803],[127.03166403605744,37.20701444229825],[127.03391933802178,37.20692761835073],[127.03892188618156,37.210811962030434],[127.04104367172644,37.211362169717304],[127.04527614734032,37.21573339615426],[127.04623145682446,37.21816073662384],[127.05353139278826,37.21356650541499],[127.0513411696315,37.21087085211746],[127.05142526295984,37.20874169585873],[127.05387472667749,37.20813346219639],[127.05627036678311,37.212202156878604],[127.05283554734059,37.21485955345017],[127.05653625074405,37.21863694412391],[127.0533392096482,37.22131220606579],[127.0515588239585,37.221008003341765],[127.0474519421387,37.22613827083717],[127.04428316298286,37.22869400155458],[127.04498933939965,37.233173413920106]]]]}},{"type":"Feature","properties":{"emd_cd":"4159552000","emd_nm":"병점1동","sgg_cd":"41595","sgg_nm":"화성시","district":"병","district_label":"화성시병"},"geometry":{"type":"Polygon","coordinates":[[[127.03892188618156,37.210811962030434],[127.03391933802178,37.20692761835073],[127.03166403605744,37.20701444229825],[127.02381450608623,37.20417645881803],[127.02302341536893,37.20151188117277],[127.02665101671123,37.200417705675434],[127.03705569350241,37.199906712498006],[127.03872316287297,37.19832787147226],[127.04250711207189,37.19763832290502],[127.04410901747382,37.19827669505852],[127.04441836609088,37.20221129891535],[127.04458606991795,37.20326658954143],[127.03892188618156,37.210811962030434]]]}},{"type":"Feature","properties":{"emd_cd":"4159553000","emd_nm":"병점2동","sgg_cd":"41595","sgg_nm":"화성시","district":"병","district_label":"화성시병"},"geometry":{"type":"Polygon","coordinates":[[[127.0513411696315,37.21087085211746],[127.05353139278826,37.21356650541499],[127.04623145682446,37.21816073662384],[127.04527614734032,37.21573339615426],[127.04104367172644,37.211362169717304],[127.03892188618156,37.210811962030434],[127.04458606991795,37.20326658954143],[127.04441836609088,37.20221129891535],[127.04789459284389,37.20497277768135],[127.04867104013265,37.20711984954612],[127.04883812048351,37.209395505350024],[127.0513411696315,37.21087085211746]]]}},{"type":"Feature","properties":{"emd_cd":"4159554000","emd_nm":"반월동","sgg_cd":"41595","sgg_nm":"화성시","district":"정","district_label":"화성시정"},"geometry":{"type":"Polygon","coordinates":[[[127.06667990835032,37.24014808570359],[127.06325900249342,37.23916712186339],[127.056319798804,37.23286697604072],[127.05166042533368,37.234314662996674],[127.04498933939965,37.233173413920106],[127.04428316298286,37.22869400155458],[127.0474519421387,37.22613827083717],[127.0515588239585,37.221008003341765],[127.0533392096482,37.22131220606579],[127.05653625074405,37.21863694412391],[127.06032534012314,37.221475811504355],[127.06161082057547,37.220652358272815],[127.06437508597052,37.2120757921021],[127.07071530106491,37.21370214188792],[127.06908627127135,37.21972435869563],[127.06752969351281,37.22214120060563],[127.07321953262532,37.226317297646375],[127.07558339692721,37.22589990688454],[127.07455991747064,37.228133924748334],[127.06875572634347,37.23015221290942],[127.06805168409994,37.238756500421175],[127.06667990835032,37.24014808570359]]]}},{"type":"Feature","properties":{"emd_cd":"4159351000","emd_nm":"기배동","sgg_cd":"41593","sgg_nm":"화성시","district":"병","district_label":"화성시병"},"geometry":{"type":"Polygon","coordinates":[[[126.99758056517456,37.230232378401766],[126.99264594823835,37.23085245816746],[126.98811538016567,37.233594619232015],[126.98572346354352,37.23263666292667],[126.98036006627134,37.23224480351824],[126.97822458087872,37.229572911663595],[126.97282308219386,37.22872083170063],[126.9703933011367,37.229196744879594],[126.9739488280597,37.222247036051634],[126.97660502119903,37.22199965074988],[126.98161143363919,37.21329837214852],[126.99385535624084,37.21686903140281],[126.99951311352272,37.219655267756046],[127.0034258223203,37.220050206618225],[127.00312916695495,37.2227966633126],[127.00809612297202,37.22784499164046],[127.00368395585323,37.229291369782516],[126.99758056517456,37.230232378401766]]]}},{"type":"Feature","properties":{"emd_cd":"4159555000","emd_nm":"화산동","sgg_cd":"41595","sgg_nm":"화성시","district":"병","district_label":"화성시병"},"geometry":{"type":"Polygon","coordinates":[[[127.02262819268907,37.224897164093015],[127.02137129523447,37.22423632268806],[127.01359635547969,37.22687504433895],[127.00809612297202,37.22784499164046],[127.00312916695495,37.2227966633126],[127.0034258223203,37.220050206618225],[126.99951311352272,37.219655267756046],[126.99385535624084,37.21686903140281],[126.98161143363919,37.21329837214852],[126.97974262444933,37.212482297577274],[126.97998573485434,37.206822627521106],[126.98510283092918,37.201941296313784],[126.98556588185264,37.20023289868863],[126.98373180748975,37.197582202787785],[126.9842175984551,37.195726780358086],[126.98538565077718,37.194931862715116],[126.99522310848442,37.19397024975787],[126.99744336176602,37.1925070199337],[126.99766654836188,37.19049445354506],[127.0070192394596,37.18773262418657],[127.00784506905812,37.18699690420797],[127.00981837133574,37.1924045003446],[127.01360426018219,37.19480882619722],[127.01752759400223,37.19546148590908],[127.02467599656254,37.19809320598534],[127.02665101671123,37.200417705675434],[127.02302341536893,37.20151188117277],[127.02381450608623,37.20417645881803],[127.02366258150971,37.206164523873845],[127.02113753212998,37.20840792077138],[127.0289093571453,37.211230025927264],[127.02595755657356,37.21537853588072],[127.02622840207319,37.220028281996605],[127.02262819268907,37.224897164093015]]]}},{"type":"Feature","properties":{"emd_cd":"4159752000","emd_nm":"동탄2동","sgg_cd":"41597","sgg_nm":"화성시","district":"정","district_label":"화성시정"},"geometry":{"type":"Polygon","coordinates":[[[127.08347298241424,37.200475764279155],[127.08008488535827,37.20068902031767],[127.07460225863991,37.199891997079135],[127.06497235523975,37.197748879515956],[127.0660226865167,37.19571779068923],[127.06564660929077,37.19215585724556],[127.06863618418403,37.190618454132235],[127.06532443080881,37.186445406596384],[127.06659419746512,37.184071451464604],[127.07105904208225,37.18403760461313],[127.0730734962434,37.18709440901572],[127.07858658761943,37.18604034510472],[127.07918066607348,37.18482222227762],[127.08361453028797,37.18419784218369],[127.08419229671081,37.189129444813396],[127.08276711816522,37.19423428692361],[127.08384555826612,37.19726342622893],[127.08347298241424,37.200475764279155]]]}},{"type":"Feature","properties":{"emd_cd":"4159751000","emd_nm":"동탄1동","sgg_cd":"41597","sgg_nm":"화성시","district":"정","district_label":"화성시정"},"geometry":{"type":"Polygon","coordinates":[[[127.07558339692721,37.22589990688454],[127.07321953262532,37.226317297646375],[127.06752969351281,37.22214120060563],[127.06908627127135,37.21972435869563],[127.07071530106491,37.21370214188792],[127.06437508597052,37.2120757921021],[127.06236397912699,37.21124117070283],[127.05952905369173,37.205750127562965],[127.05950388376326,37.19965555824066],[127.06146608313912,37.199400718442],[127.06497235523975,37.197748879515956],[127.07460225863991,37.199891997079135],[127.08008488535827,37.20068902031767],[127.08347298241424,37.200475764279155],[127.08626796937,37.20472583327431],[127.08645721704256,37.2066584074666],[127.08457519970024,37.2097255568509],[127.08811503039189,37.21445011942852],[127.08873665903569,37.21646011860173],[127.08283286206381,37.21952343472659],[127.07558339692721,37.22589990688454]]]}},{"type":"Feature","properties":{"emd_cd":"4159753000","emd_nm":"동탄3동","sgg_cd":"41597","sgg_nm":"화성시","district":"정","district_label":"화성시정"},"geometry":{"type":"Polygon","coordinates":[[[127.06437508597052,37.2120757921021],[127.06161082057547,37.220652358272815],[127.06032534012314,37.221475811504355],[127.05653625074405,37.21863694412391],[127.05283554734059,37.21485955345017],[127.05627036678311,37.212202156878604],[127.05387472667749,37.20813346219639],[127.05142526295984,37.20874169585873],[127.0513411696315,37.21087085211746],[127.04883812048351,37.209395505350024],[127.04867104013265,37.20711984954612],[127.05282704457214,37.20293404334265],[127.05297085923019,37.20147769076507],[127.04994079912281,37.19794748708186],[127.05040747069674,37.196326586017896],[127.05673186684464,37.19723943056863],[127.06146608313912,37.199400718442],[127.05950388376326,37.19965555824066],[127.05952905369173,37.205750127562965],[127.06236397912699,37.21124117070283],[127.06437508597052,37.2120757921021]]]}},{"type":"Feature","properties":{"emd_cd":"4159151000","emd_nm":"새솔동","sgg_cd":"41591","sgg_nm":"화성시","district":"갑","district_label":"화성시갑"},"geometry":{"type":"Polygon","coordinates":[[[126.84522980099607,37.26589565954371],[126.84143009886574,37.26765033152249],[126.83753252693579,37.27219479223923],[126.83726441628102,37.27492520755881],[126.8356138785131,37.27657461862234],[126.82901933266214,37.27673255987526],[126.82682998218631,37.27853490049617],[126.82348700143955,37.28643838247673],[126.81932277117858,37.29053188222066],[126.8146372309547,37.29280744855235],[126.81172538600889,37.29339547334421],[126.80464424555693,37.29318333865403],[126.804487668692,37.28365977911975],[126.81061338665515,37.28677876735512],[126.81385290906863,37.28504136443538],[126.81098730530624,37.28326849235459],[126.80981523185883,37.280578538748756],[126.81178278984717,37.27904841729615],[126.82002833492697,37.27590558645286],[126.82556250184123,37.27142958760347],[126.82893885795721,37.2706682270924],[126.83117698299846,37.27367136556995],[126.83548005695094,37.270963682838016],[126.83741140378613,37.270691559930924],[126.84124633843676,37.26632237666249],[126.84522980099607,37.26589565954371]]]}},{"type":"Feature","properties":{"emd_cd":"4159755000","emd_nm":"동탄5동","sgg_cd":"41597","sgg_nm":"화성시","district":"정","district_label":"화성시정"},"geometry":{"type":"Polygon","coordinates":[[[127.15160402018091,37.21854357488899],[127.14846968844893,37.21907389330226],[127.1400208284669,37.21750373403473],[127.13675672246572,37.21568081793321],[127.12965728435836,37.217456009393885],[127.12671525292849,37.21751212591331],[127.11738471629546,37.219964561509755],[127.11517517236503,37.21914618201571],[127.1043251660069,37.21981690132552],[127.09558244025135,37.218293294333165],[127.08873665903569,37.21646011860173],[127.08811503039189,37.21445011942852],[127.08457519970024,37.2097255568509],[127.08645721704256,37.2066584074666],[127.08626796937,37.20472583327431],[127.09892058992234,37.20474996493321],[127.10980889025937,37.2033231284882],[127.11619858826441,37.20371477179986],[127.12086739488393,37.20187596139671],[127.13043323924109,37.201281736364166],[127.13146863988896,37.19565577470424],[127.13588448386821,37.19537072384927],[127.1390180897216,37.19624765382831],[127.1441084623054,37.19630463150064],[127.15229428967118,37.19832916910363],[127.15338581255322,37.20190741133056],[127.15767518135708,37.206996100509656],[127.15171809087629,37.21413927716269],[127.15160402018091,37.21854357488899]]]}},{"type":"Feature","properties":{"emd_cd":"4159754000","emd_nm":"동탄4동","sgg_cd":"41597","sgg_nm":"화성시","district":"을","district_label":"화성시을"},"geometry":{"type":"Polygon","coordinates":[[[127.09892058992234,37.20474996493321],[127.09875205873674,37.19090275237167],[127.10323609730096,37.18960855491049],[127.10274495325557,37.18661429627568],[127.10843041196799,37.18434419727455],[127.11317291642261,37.183959231633374],[127.1158055720804,37.186373419877576],[127.11549304739418,37.18876648221808],[127.11928779095355,37.18966576533662],[127.12143647611208,37.19118293884949],[127.11961304928919,37.193477754675655],[127.12513345706441,37.195987328364716],[127.13146863988896,37.19565577470424],[127.13043323924109,37.201281736364166],[127.12086739488393,37.20187596139671],[127.11619858826441,37.20371477179986],[127.10980889025937,37.2033231284882],[127.09892058992234,37.20474996493321]]]}},{"type":"Feature","properties":{"emd_cd":"4159757000","emd_nm":"동탄7동","sgg_cd":"41597","sgg_nm":"화성시","district":"을","district_label":"화성시을"},"geometry":{"type":"Polygon","coordinates":[[[127.11151380817074,37.180018959322176],[127.10346717943186,37.17781242379204],[127.09814722483988,37.17744036940675],[127.09546240765813,37.174498388609685],[127.09101567294364,37.16477925501155],[127.10004159073691,37.1648176254598],[127.10350766175131,37.16567051488288],[127.11451609003146,37.165968500199334],[127.11544001406908,37.16405046388026],[127.12280933054194,37.16253673172024],[127.12914510966604,37.16202677192796],[127.13368296605584,37.16473047578324],[127.13255329650265,37.16818276975648],[127.12782720356012,37.16904722987129],[127.12378432864607,37.168762233964564],[127.1241776193379,37.17330064104262],[127.12611303902976,37.17941679942952],[127.12267399155587,37.179224411699956],[127.11151380817074,37.180018959322176]]]}},{"type":"Feature","properties":{"emd_cd":"4159758000","emd_nm":"동탄8동","sgg_cd":"41597","sgg_nm":"화성시","district":"을","district_label":"화성시을"},"geometry":{"type":"Polygon","coordinates":[[[127.08895355840001,37.160524542726584],[127.09386111016404,37.15945250111411],[127.09799023590622,37.15585079615152],[127.09775603738964,37.1517009264326],[127.09930881090114,37.15021352982816],[127.10094927307202,37.146087206018066],[127.10364660198648,37.14357454892091],[127.10430824725384,37.14193167653745],[127.10923126288027,37.14268603808672],[127.11412940584704,37.14461646959946],[127.11895160567077,37.14377685300055],[127.12269547734505,37.14450996211115],[127.1270792773717,37.145649477492405],[127.12948936699448,37.148750018236605],[127.13059262482636,37.151850949051955],[127.12882948826955,37.15848210150787],[127.12914510966604,37.16202677192796],[127.12280933054194,37.16253673172024],[127.11544001406908,37.16405046388026],[127.11451609003146,37.165968500199334],[127.10350766175131,37.16567051488288],[127.10004159073691,37.1648176254598],[127.09101567294364,37.16477925501155],[127.08895355840001,37.160524542726584]]]}},{"type":"Feature","properties":{"emd_cd":"4159759000","emd_nm":"동탄9동","sgg_cd":"41597","sgg_nm":"화성시","district":"을","district_label":"화성시을"},"geometry":{"type":"Polygon","coordinates":[[[127.13255329650265,37.16818276975648],[127.13330725480529,37.169204826889064],[127.14370776569984,37.17017177024821],[127.14862134221951,37.16979770780068],[127.1511488477143,37.171604619935955],[127.15549931808002,37.17664609974297],[127.15925727350515,37.177976406199434],[127.16067009339847,37.180557303591655],[127.15907821780459,37.18413478481523],[127.16023076248457,37.185891338855775],[127.16090918563268,37.19172484115654],[127.15571974196577,37.19665986109268],[127.15229428967118,37.19832916910363],[127.1441084623054,37.19630463150064],[127.1390180897216,37.19624765382831],[127.13588448386821,37.19537072384927],[127.12513345706441,37.195987328364716],[127.11961304928919,37.193477754675655],[127.12143647611208,37.19118293884949],[127.11928779095355,37.18966576533662],[127.11549304739418,37.18876648221808],[127.1158055720804,37.186373419877576],[127.11317291642261,37.183959231633374],[127.11691011777306,37.183505681317236],[127.11151380817074,37.180018959322176],[127.12267399155587,37.179224411699956],[127.12611303902976,37.17941679942952],[127.1241776193379,37.17330064104262],[127.12378432864607,37.168762233964564],[127.12782720356012,37.16904722987129],[127.13255329650265,37.16818276975648]]]}}]}