{"type":"FeatureCollection","features":[{"type":"Feature","properties":{"emd_cd":"4111156000","emd_nm":"파장동","sgg_cd":"41111","sgg_nm":"수원시","district":"갑","district_label":"수원시갑"},"geometry":{"type":"Polygon","coordinates":[[[127.00611881535663,37.3380699870098],[127.00046651030817,37.33849368449755],[126.99141394401062,37.334012427818884],[126.98710775533263,37.329448508020306],[126.98277935878322,37.32674702347757],[126.98093781840896,37.32659362012859],[126.97119432204674,37.33178863450821],[126.96692202659356,37.323238361971136],[126.9739352904611,37.30910851248684],[126.97273596524737,37.30552026162965],[126.98218607021396,37.306191736696995],[126.9816819858029,37.30976127167044],[126.98674651560432,37.31171970172745],[126.98839620411594,37.308963466067645],[126.99210174000508,37.30635188567953],[126.99597242967091,37.30537689682949],[126.9970875531925,37.30313613820339],[127.0025530960163,37.310360127909526],[127.00211664553419,37.31226585232296],[127.0079940183617,37.318748858478166],[127.0059870553524,37.32123390940727],[127.00543548954273,37.323801728393775],[127.00234723200562,37.326886160853824],[127.00331628651146,37.32960227140087],[127.00629693471055,37.33208906668649],[127.00706178037204,37.33499130693701],[127.00611881535663,37.3380699870098]]]}},{"type":"Feature","properties":{"emd_cd":"4111156600","emd_nm":"율천동","sgg_cd":"41111","sgg_nm":"수원시","district":"을","district_label":"수원시을"},"geometry":{"type":"Polygon","coordinates":[[[126.97273596524737,37.30552026162965],[126.9739352904611,37.30910851248684],[126.97000341451498,37.31692400004181],[126.96770523980321,37.31593794042539],[126.96666268436336,37.31304881551076],[126.96634986009674,37.308205988996754],[126.96397506329482,37.30437030714423],[126.9610752166736,37.3019687121463],[126.96424250277566,37.30272262512767],[126.9636671837674,37.29874380497139],[126.96807236175165,37.29426350854077],[126.96973333937055,37.28776517857115],[126.96957726973373,37.286615268939414],[126.97427822076641,37.2855221677718],[126.97876685881427,37.286572649234536],[126.97759353356714,37.28842660961371],[126.98437008242135,37.29133621879853],[126.97818073115583,37.298351230514754],[126.97269710512977,37.300282930725594],[126.97273596524737,37.30552026162965]]]}},{"type":"Feature","properties":{"emd_cd":"4111157100","emd_nm":"정자1동","sgg_cd":"41111","sgg_nm":"수원시","district":"갑","district_label":"수원시갑"},"geometry":{"type":"Polygon","coordinates":[[[126.9970875531925,37.30313613820339],[126.99597242967091,37.30537689682949],[126.99210174000508,37.30635188567953],[126.98839620411594,37.308963466067645],[126.98674651560432,37.31171970172745],[126.9816819858029,37.30976127167044],[126.98218607021396,37.306191736696995],[126.98449268335733,37.3014841723539],[126.98954005211642,37.30156913546909],[126.9913197797562,37.29845918760288],[126.99584347756912,37.30018211405946],[126.99769537663626,37.29784529674503],[126.99780235093932,37.29798429498356],[126.9970875531925,37.30313613820339]]]}},{"type":"Feature","properties":{"emd_cd":"4111157200","emd_nm":"정자2동","sgg_cd":"41111","sgg_nm":"수원시","district":"갑","district_label":"수원시갑"},"geometry":{"type":"Polygon","coordinates":[[[127.00935124032038,37.29536576579804],[127.00169066867919,37.29618330537314],[126.99780235093932,37.29798429498356],[126.99392136138856,37.29439547575152],[126.98800522719286,37.29214639136663],[126.98612771298066,37.2894115533856],[126.98841815457678,37.28958372520589],[126.99054217648388,37.28620366281203],[127.00064414960288,37.289778988611694],[127.01095739417953,37.293228160428804],[127.00935124032038,37.29536576579804]]]}},{"type":"Feature","properties":{"emd_cd":"4111158000","emd_nm":"영화동","sgg_cd":"41111","sgg_nm":"수원시","district":"갑","district_label":"수원시갑"},"geometry":{"type":"Polygon","coordinates":[[[127.01761461509767,37.2878335985725],[127.02542749019703,37.295830944764276],[127.0255208558682,37.29782824821868],[127.01927270174126,37.2961929290477],[127.01095739417953,37.293228160428804],[127.00064414960288,37.289778988611694],[127.00525950351373,37.28660075396563],[127.00920787956647,37.285520867887655],[127.01481031867287,37.28944697115501],[127.01761461509767,37.2878335985725]]]}},{"type":"Feature","properties":{"emd_cd":"4111159100","emd_nm":"송죽동","sgg_cd":"41111","sgg_nm":"수원시","district":"갑","district_label":"수원시갑"},"geometry":{"type":"Polygon","coordinates":[[[127.01278295341129,37.31652986185568],[127.01146120251796,37.31858407889993],[127.0079940183617,37.318748858478166],[127.00211664553419,37.31226585232296],[127.0025530960163,37.310360127909526],[126.9970875531925,37.30313613820339],[126.99780235093932,37.29798429498356],[127.00169066867919,37.29618330537314],[127.00935124032038,37.29536576579804],[127.00689128692323,37.2986670283576],[127.00938349981243,37.30148289030525],[127.00431715744136,37.304603186903265],[127.0073638257544,37.310340816587264],[127.01282411860691,37.31395134393361],[127.01278295341129,37.31652986185568]]]}},{"type":"Feature","properties":{"emd_cd":"4111159700","emd_nm":"조원1동","sgg_cd":"41111","sgg_nm":"수원시","district":"갑","district_label":"수원시갑"},"geometry":{"type":"Polygon","coordinates":[[[127.0255208558682,37.29782824821868],[127.02446375000834,37.300071844574674],[127.02403420558068,37.30746938838325],[127.02316041819084,37.30678983002715],[127.013939285111,37.306303876066366],[127.00938349981243,37.30148289030525],[127.00689128692323,37.2986670283576],[127.01095739417953,37.293228160428804],[127.01927270174126,37.2961929290477],[127.0255208558682,37.29782824821868]]]}},{"type":"Feature","properties":{"emd_cd":"4111160000","emd_nm":"연무동","sgg_cd":"41111","sgg_nm":"수원시","district":"갑","district_label":"수원시갑"},"geometry":{"type":"Polygon","coordinates":[[[127.03344092364888,37.34470695410112],[127.02877859223024,37.347576341667],[127.02508349180493,37.34854234860915],[127.0188076940644,37.35156311737541],[127.01461020553634,37.349150555875745],[127.01269558713778,37.346879090817126],[127.00902511138911,37.33875767439271],[127.00611881535663,37.3380699870098],[127.00706178037204,37.33499130693701],[127.00629693471055,37.33208906668649],[127.00331628651146,37.32960227140087],[127.00234723200562,37.326886160853824],[127.00543548954273,37.323801728393775],[127.0059870553524,37.32123390940727],[127.0079940183617,37.318748858478166],[127.01146120251796,37.31858407889993],[127.01278295341129,37.31652986185568],[127.01707376910356,37.31409332647868],[127.02403420558068,37.30746938838325],[127.02446375000834,37.300071844574674],[127.0255208558682,37.29782824821868],[127.02542749019703,37.295830944764276],[127.01761461509767,37.2878335985725],[127.02251567320283,37.28806762955775],[127.02466343512279,37.28951624023535],[127.02510290104524,37.289508060133016],[127.0271785496544,37.2915510676582],[127.03393198638591,37.293201483507204],[127.03450075482951,37.295422269134264],[127.03257548433444,37.298754329955806],[127.03322767150036,37.30801641933274],[127.03230777780381,37.309643171835575],[127.03423248277915,37.31376785004161],[127.03807111345938,37.31616030499192],[127.03889482898782,37.3208260119001],[127.03991793157468,37.32133695197896],[127.0372573324354,37.3263653233896],[127.03826505789314,37.32850216296584],[127.03594701932074,37.331000069833046],[127.03457699645394,37.33453487531196],[127.03153495011198,37.33700386494246],[127.03206804934035,37.34238478027626],[127.03344092364888,37.34470695410112]]]}},{"type":"Feature","properties":{"emd_cd":"4111157300","emd_nm":"정자3동","sgg_cd":"41111","sgg_nm":"수원시","district":"갑","district_label":"수원시갑"},"geometry":{"type":"Polygon","coordinates":[[[126.99769537663626,37.29784529674503],[126.99584347756912,37.30018211405946],[126.9913197797562,37.29845918760288],[126.98954005211642,37.30156913546909],[126.98449268335733,37.3014841723539],[126.98218607021396,37.306191736696995],[126.97273596524737,37.30552026162965],[126.97269710512977,37.300282930725594],[126.97818073115583,37.298351230514754],[126.98612771298066,37.2894115533856],[126.98800522719286,37.29214639136663],[126.99392136138856,37.29439547575152],[126.99769537663626,37.29784529674503]]]}},{"type":"Feature","properties":{"emd_cd":"4111159800","emd_nm":"조원2동","sgg_cd":"41111","sgg_nm":"수원시","district":"갑","district_label":"수원시갑"},"geometry":{"type":"Polygon","coordinates":[[[127.02403420558068,37.30746938838325],[127.01707376910356,37.31409332647868],[127.01278295341129,37.31652986185568],[127.01282411860691,37.31395134393361],[127.0073638257544,37.310340816587264],[127.00431715744136,37.304603186903265],[127.00938349981243,37.30148289030525],[127.013939285111,37.306303876066366],[127.02316041819084,37.30678983002715],[127.02403420558068,37.30746938838325]]]}},{"type":"Feature","properties":{"emd_cd":"4111352000","emd_nm":"세류1동","sgg_cd":"41113","sgg_nm":"수원시","district":"병","district_label":"수원시병"},"geometry":{"type":"Polygon","coordinates":[[[127.01219316316816,37.2663008877137],[127.00981322291359,37.267647618595745],[127.00718916086723,37.26359624259576],[127.00191238613043,37.264148798740834],[127.00102287396122,37.26339576972796],[127.0036400558927,37.25951847742542],[126.99862924079594,37.25541169950699],[126.99844056875193,37.25356642117922],[127.00456449791629,37.25462204778812],[127.00789366251277,37.25660998644537],[127.00841533127655,37.259512415264126],[127.01219316316816,37.2663008877137]]]}},{"type":"Feature","properties":{"emd_cd":"4111353000","emd_nm":"세류2동","sgg_cd":"41113","sgg_nm":"수원시","district":"무","district_label":"수원시무"},"geometry":{"type":"Polygon","coordinates":[[[127.02025690065864,37.25313298826205],[127.01129356862884,37.256076471122526],[127.01220825779293,37.25872300946041],[127.00841533127655,37.259512415264126],[127.00789366251277,37.25660998644537],[127.00456449791629,37.25462204778812],[126.99844056875193,37.25356642117922],[126.99869235947294,37.24917549274568],[127.00049974808547,37.24676057525336],[127.00080763707014,37.24356529676618],[126.99813058862706,37.23750110044973],[126.99758056517456,37.230232378401766],[127.00368395585323,37.229291369782516],[127.00300988735844,37.23283548154152],[127.00964674314704,37.236563441684126],[127.0128591528956,37.236115859893154],[127.01599643192465,37.23783349293376],[127.0156936941422,37.239369336957495],[127.01771395597149,37.24794741772153],[127.02025690065864,37.25313298826205]]]}},{"type":"Feature","properties":{"emd_cd":"4111354000","emd_nm":"세류3동","sgg_cd":"41113","sgg_nm":"수원시","district":"무","district_label":"수원시무"},"geometry":{"type":"Polygon","coordinates":[[[127.02067671924755,37.264501184152486],[127.01358428967959,37.26449591871563],[127.01219316316816,37.2663008877137],[127.00841533127655,37.259512415264126],[127.01220825779293,37.25872300946041],[127.01129356862884,37.256076471122526],[127.02025690065864,37.25313298826205],[127.02189972228909,37.25624822235805],[127.01704032574978,37.257429609607044],[127.02067671924755,37.264501184152486]]]}},{"type":"Feature","properties":{"emd_cd":"4111355000","emd_nm":"평동","sgg_cd":"41113","sgg_nm":"수원시","district":"을","district_label":"수원시을"},"geometry":{"type":"Polygon","coordinates":[[[127.00102287396122,37.26339576972796],[127.00038968820422,37.264178405176224],[126.99903676331363,37.26293894001445],[126.98539810113778,37.2584185459771],[126.98248605537134,37.257966423907],[126.97338171516063,37.25961977366331],[126.97375264350124,37.25662094128269],[126.96865735858196,37.255883798981316],[126.96743676707855,37.258360507908236],[126.96073711087378,37.25357760609281],[126.95315457196111,37.25292517440778],[126.95224433524223,37.25147262969224],[126.9533657525033,37.24812870864571],[126.95667789024778,37.245188443536215],[126.95795860148625,37.24259827223269],[126.95776467963022,37.23976480644073],[126.96695423283646,37.23562517684138],[126.9703933011367,37.229196744879594],[126.97282308219386,37.22872083170063],[126.97822458087872,37.229572911663595],[126.98036006627134,37.23224480351824],[126.98572346354352,37.23263666292667],[126.98811538016567,37.233594619232015],[126.99264594823835,37.23085245816746],[126.99758056517456,37.230232378401766],[126.99813058862706,37.23750110044973],[127.00080763707014,37.24356529676618],[127.00049974808547,37.24676057525336],[126.99869235947294,37.24917549274568],[126.99844056875193,37.25356642117922],[126.99862924079594,37.25541169950699],[127.0036400558927,37.25951847742542],[127.00102287396122,37.26339576972796]]]}},{"type":"Feature","properties":{"emd_cd":"4111356000","emd_nm":"서둔동","sgg_cd":"41113","sgg_nm":"수원시","district":"을","district_label":"수원시을"},"geometry":{"type":"Polygon","coordinates":[[[126.99313963695145,37.27737439111898],[126.98692527047069,37.27475615424428],[126.98567947255435,37.27746731568878],[126.98661026366055,37.28210901070926],[126.98386280760427,37.2842536933016],[126.98133813136297,37.28352261768414],[126.97850628134346,37.28285892135218],[126.97841671992174,37.277370141914936],[126.9796351357638,37.276193609570846],[126.9621145103767,37.273163233281124],[126.96772751747234,37.267941356585716],[126.97007772667267,37.26451086022745],[126.97047040830704,37.26107943838719],[126.96743676707855,37.258360507908236],[126.96865735858196,37.255883798981316],[126.97375264350124,37.25662094128269],[126.97338171516063,37.25961977366331],[126.98248605537134,37.257966423907],[126.98539810113778,37.2584185459771],[126.99903676331363,37.26293894001445],[127.00038968820422,37.264178405176224],[126.9986698127897,37.266192543483314],[126.99743132393749,37.269899946385955],[126.99539459598233,37.27361946027393],[126.99313963695145,37.27737439111898]]]}},{"type":"Feature","properties":{"emd_cd":"4111365000","emd_nm":"구운동","sgg_cd":"41113","sgg_nm":"수원시","district":"을","district_label":"수원시을"},"geometry":{"type":"Polygon","coordinates":[[[126.96973333937055,37.28776517857115],[126.96655279927036,37.28766639555902],[126.96310691127748,37.2887798044337],[126.96506440473586,37.28337137923632],[126.96004391207836,37.28009225686305],[126.9621145103767,37.273163233281124],[126.9796351357638,37.276193609570846],[126.97841671992174,37.277370141914936],[126.97850628134346,37.28285892135218],[126.98133813136297,37.28352261768414],[126.97876685881427,37.286572649234536],[126.97427822076641,37.2855221677718],[126.96957726973373,37.286615268939414],[126.96973333937055,37.28776517857115]]]}},{"type":"Feature","properties":{"emd_cd":"4111366400","emd_nm":"호매실동","sgg_cd":"41113","sgg_nm":"수원시","district":"을","district_label":"수원시을"},"geometry":{"type":"Polygon","coordinates":[[[126.9621145103767,37.273163233281124],[126.95604468421206,37.26879054081557],[126.95292926711771,37.26876129515028],[126.9453176580303,37.271341521481716],[126.94168893274056,37.2704645661393],[126.93706004161028,37.26321499004027],[126.93084573671328,37.261042058333445],[126.93577695359531,37.25677165741207],[126.9435877824963,37.25684242389027],[126.94652972524321,37.2575040886718],[126.95004611715697,37.255843884866394],[126.94998261312715,37.25381883601669],[126.95224433524223,37.25147262969224],[126.95315457196111,37.25292517440778],[126.96073711087378,37.25357760609281],[126.96743676707855,37.258360507908236],[126.97047040830704,37.26107943838719],[126.97007772667267,37.26451086022745],[126.96772751747234,37.267941356585716],[126.9621145103767,37.273163233281124]]]}},{"type":"Feature","properties":{"emd_cd":"4111369000","emd_nm":"곡선동","sgg_cd":"41113","sgg_nm":"수원시","district":"무","district_label":"수원시무"},"geometry":{"type":"Polygon","coordinates":[[[127.03968326246633,37.24350305425567],[127.03955699721548,37.247003397449795],[127.0425353552713,37.25116137228451],[127.03946686085655,37.25417140503255],[127.03506998150024,37.25286747838009],[127.03244715978465,37.24678181906036],[127.02783487539432,37.23896409104686],[127.02567372480053,37.2363808352353],[127.02128860351378,37.23386858476483],[127.01933973278702,37.23785387068],[127.01599643192465,37.23783349293376],[127.0128591528956,37.236115859893154],[127.00964674314704,37.236563441684126],[127.00300988735844,37.23283548154152],[127.00368395585323,37.229291369782516],[127.00809612297202,37.22784499164046],[127.01359635547969,37.22687504433895],[127.02137129523447,37.22423632268806],[127.02262819268907,37.224897164093015],[127.02396855255314,37.22741521171425],[127.02289852640207,37.22951454847343],[127.02964391368278,37.23201023832599],[127.0366998915232,37.238400803242776],[127.03713719682615,37.24050047331228],[127.03968326246633,37.24350305425567]]]}},{"type":"Feature","properties":{"emd_cd":"4111370000","emd_nm":"입북동","sgg_cd":"41113","sgg_nm":"수원시","district":"을","district_label":"수원시을"},"geometry":{"type":"Polygon","coordinates":[[[126.9610752166736,37.3019687121463],[126.95430209847191,37.30314257159083],[126.95229328176649,37.30064969341378],[126.94158757536634,37.301022473194784],[126.93474649732423,37.30306543631546],[126.9329532092641,37.30304784371433],[126.93258957102812,37.30075996197891],[126.93546680305103,37.29803012908371],[126.93934230170163,37.296919565428304],[126.93929325576404,37.29497684656569],[126.93297761091021,37.291625149076864],[126.92929189604779,37.286021026056744],[126.92739619327676,37.27884589157926],[126.93409371160682,37.27742349157398],[126.94074235055142,37.27706636515984],[126.94130838001212,37.28156020890578],[126.9468024793636,37.28178657155007],[126.95280579060297,37.282965998648734],[126.96004391207836,37.28009225686305],[126.96506440473586,37.28337137923632],[126.96310691127748,37.2887798044337],[126.96655279927036,37.28766639555902],[126.96973333937055,37.28776517857115],[126.96807236175165,37.29426350854077],[126.9636671837674,37.29874380497139],[126.96424250277566,37.30272262512767],[126.9610752166736,37.3019687121463]]]}},{"type":"Feature","properties":{"emd_cd":"4111366200","emd_nm":"금곡동","sgg_cd":"41113","sgg_nm":"수원시","district":"을","district_label":"수원시을"},"geometry":{"type":"Polygon","coordinates":[[[126.96004391207836,37.28009225686305],[126.95280579060297,37.282965998648734],[126.9468024793636,37.28178657155007],[126.94130838001212,37.28156020890578],[126.94074235055142,37.27706636515984],[126.93409371160682,37.27742349157398],[126.92739619327676,37.27884589157926],[126.92868182060445,37.27671912876092],[126.9272646844167,37.27143133965148],[126.92900819260379,37.26365626709575],[126.93084573671328,37.261042058333445],[126.93706004161028,37.26321499004027],[126.94168893274056,37.2704645661393],[126.9453176580303,37.271341521481716],[126.95292926711771,37.26876129515028],[126.95604468421206,37.26879054081557],[126.9621145103767,37.273163233281124],[126.96004391207836,37.28009225686305]]]}},{"type":"Feature","properties":{"emd_cd":"4111368000","emd_nm":"권선2동","sgg_cd":"41113","sgg_nm":"수원시","district":"무","district_label":"수원시무"},"geometry":{"type":"Polygon","coordinates":[[[127.03506998150024,37.25286747838009],[127.02189972228909,37.25624822235805],[127.02025690065864,37.25313298826205],[127.01771395597149,37.24794741772153],[127.0156936941422,37.239369336957495],[127.01599643192465,37.23783349293376],[127.01933973278702,37.23785387068],[127.02128860351378,37.23386858476483],[127.02567372480053,37.2363808352353],[127.02783487539432,37.23896409104686],[127.03244715978465,37.24678181906036],[127.03506998150024,37.25286747838009]]]}},{"type":"Feature","properties":{"emd_cd":"4111570000","emd_nm":"지동","sgg_cd":"41115","sgg_nm":"수원시","district":"병","district_label":"수원시병"},"geometry":{"type":"Polygon","coordinates":[[[127.02510290104524,37.289508060133016],[127.02466343512279,37.28951624023535],[127.02526400924303,37.28741616219304],[127.02324700936015,37.28353512042382],[127.01879177020693,37.278147196134405],[127.01974140720436,37.27526115388375],[127.026449538919,37.27657153516313],[127.03114602853935,37.27818907453989],[127.02951384430966,37.2820506795075],[127.02510290104524,37.289508060133016]]]}},{"type":"Feature","properties":{"emd_cd":"4111571000","emd_nm":"우만1동","sgg_cd":"41115","sgg_nm":"수원시","district":"병","district_label":"수원시병"},"geometry":{"type":"Polygon","coordinates":[[[127.03880513434268,37.284797001572805],[127.04322176615761,37.290372381986764],[127.03826149275932,37.2929863447301],[127.03393198638591,37.293201483507204],[127.0271785496544,37.2915510676582],[127.02510290104524,37.289508060133016],[127.02951384430966,37.2820506795075],[127.03114602853935,37.27818907453989],[127.03168570340898,37.27814050387189],[127.03361906780715,37.283106743732546],[127.03880513434268,37.284797001572805]]]}},{"type":"Feature","properties":{"emd_cd":"4111572000","emd_nm":"우만2동","sgg_cd":"41115","sgg_nm":"수원시","district":"병","district_label":"수원시병"},"geometry":{"type":"Polygon","coordinates":[[[127.04407293717225,37.28542697885889],[127.03880513434268,37.284797001572805],[127.03361906780715,37.283106743732546],[127.03168570340898,37.27814050387189],[127.04036470307629,37.275866936235275],[127.04405384082548,37.274707160443825],[127.04375559105836,37.27915438615593],[127.0417838318746,37.28412696345384],[127.04407293717225,37.28542697885889]]]}},{"type":"Feature","properties":{"emd_cd":"4111573000","emd_nm":"인계동","sgg_cd":"41115","sgg_nm":"수원시","district":"병","district_label":"수원시병"},"geometry":{"type":"Polygon","coordinates":[[[127.03114602853935,37.27818907453989],[127.026449538919,37.27657153516313],[127.01974140720436,37.27526115388375],[127.01821455528597,37.27225443794452],[127.01931941499154,37.265786963234845],[127.02067671924755,37.264501184152486],[127.02934928316769,37.26228249007329],[127.03158850045514,37.261057445438645],[127.03046150805054,37.25820133095293],[127.03667421739159,37.25652104110118],[127.04040862083214,37.265283700093846],[127.03586657318226,37.26638928151273],[127.0347941758409,37.26793779614611],[127.03833455225924,37.26946135509624],[127.03699343257696,37.27506735554131],[127.04036470307629,37.275866936235275],[127.03168570340898,37.27814050387189],[127.03114602853935,37.27818907453989]]]}},{"type":"Feature","properties":{"emd_cd":"4111565000","emd_nm":"매교동","sgg_cd":"41115","sgg_nm":"수원시","district":"병","district_label":"수원시병"},"geometry":{"type":"Polygon","coordinates":[[[127.01821455528597,37.27225443794452],[127.01563397776978,37.274619915443324],[127.01177861703475,37.273850577090975],[127.00981322291359,37.267647618595745],[127.01219316316816,37.2663008877137],[127.01358428967959,37.26449591871563],[127.02067671924755,37.264501184152486],[127.01931941499154,37.265786963234845],[127.01821455528597,37.27225443794452]]]}},{"type":"Feature","properties":{"emd_cd":"4111566000","emd_nm":"매산동","sgg_cd":"41115","sgg_nm":"수원시","district":"병","district_label":"수원시병"},"geometry":{"type":"Polygon","coordinates":[[[127.01177861703475,37.273850577090975],[127.01070616377939,37.27758579975104],[127.00823591553801,37.27627417909698],[127.00777287407172,37.27072078117917],[127.00433978675524,37.269663118449145],[127.00039367639509,37.270412692159645],[126.99743132393749,37.269899946385955],[126.9986698127897,37.266192543483314],[127.00102287396122,37.26339576972796],[127.00191238613043,37.264148798740834],[127.00718916086723,37.26359624259576],[127.00981322291359,37.267647618595745],[127.01177861703475,37.273850577090975]]]}},{"type":"Feature","properties":{"emd_cd":"4111567000","emd_nm":"고등동","sgg_cd":"41115","sgg_nm":"수원시","district":"병","district_label":"수원시병"},"geometry":{"type":"Polygon","coordinates":[[[127.00993391004774,37.279353843438955],[127.00435500519431,37.278800025955704],[127.00327428199977,37.27721569922319],[126.99662831829491,37.27605750579892],[126.99539459598233,37.27361946027393],[126.99743132393749,37.269899946385955],[127.00039367639509,37.270412692159645],[127.00433978675524,37.269663118449145],[127.00777287407172,37.27072078117917],[127.00823591553801,37.27627417909698],[127.01070616377939,37.27758579975104],[127.00993391004774,37.279353843438955]]]}},{"type":"Feature","properties":{"emd_cd":"4111568000","emd_nm":"화서1동","sgg_cd":"41115","sgg_nm":"수원시","district":"병","district_label":"수원시병"},"geometry":{"type":"Polygon","coordinates":[[[127.00920787956647,37.285520867887655],[127.00525950351373,37.28660075396563],[127.00502350969082,37.28452539850677],[127.00074613475729,37.282142433748454],[126.9971891075819,37.28291055107963],[126.9926758261385,37.28020618640741],[126.99313963695145,37.27737439111898],[126.99539459598233,37.27361946027393],[126.99662831829491,37.27605750579892],[127.00327428199977,37.27721569922319],[127.00435500519431,37.278800025955704],[127.00993391004774,37.279353843438955],[127.00821037812003,37.28432467377738],[127.00920787956647,37.285520867887655]]]}},{"type":"Feature","properties":{"emd_cd":"4111569000","emd_nm":"화서2동","sgg_cd":"41115","sgg_nm":"수원시","district":"병","district_label":"수원시병"},"geometry":{"type":"Polygon","coordinates":[[[126.98612771298066,37.2894115533856],[126.98437008242135,37.29133621879853],[126.97759353356714,37.28842660961371],[126.97876685881427,37.286572649234536],[126.98133813136297,37.28352261768414],[126.98386280760427,37.2842536933016],[126.98661026366055,37.28210901070926],[126.98567947255435,37.27746731568878],[126.98692527047069,37.27475615424428],[126.99313963695145,37.27737439111898],[126.9926758261385,37.28020618640741],[126.9971891075819,37.28291055107963],[127.00074613475729,37.282142433748454],[127.00502350969082,37.28452539850677],[127.00525950351373,37.28660075396563],[127.00064414960288,37.289778988611694],[126.99054217648388,37.28620366281203],[126.98841815457678,37.28958372520589],[126.98612771298066,37.2894115533856]]]}},{"type":"Feature","properties":{"emd_cd":"4111574000","emd_nm":"행궁동","sgg_cd":"41115","sgg_nm":"수원시","district":"병","district_label":"수원시병"},"geometry":{"type":"Polygon","coordinates":[[[127.01974140720436,37.27526115388375],[127.01879177020693,37.278147196134405],[127.02324700936015,37.28353512042382],[127.02526400924303,37.28741616219304],[127.02466343512279,37.28951624023535],[127.02251567320283,37.28806762955775],[127.01761461509767,37.2878335985725],[127.01481031867287,37.28944697115501],[127.00920787956647,37.285520867887655],[127.00821037812003,37.28432467377738],[127.00993391004774,37.279353843438955],[127.01070616377939,37.27758579975104],[127.01177861703475,37.273850577090975],[127.01563397776978,37.274619915443324],[127.01821455528597,37.27225443794452],[127.01974140720436,37.27526115388375]]]}},{"type":"Feature","properties":{"emd_cd":"4111751000","emd_nm":"매탄1동","sgg_cd":"41117","sgg_nm":"수원시","district":"정","district_label":"수원시정"},"geometry":{"type":"Polygon","coordinates":[[[127.04798617070318,37.273521151638114],[127.04036470307629,37.275866936235275],[127.03699343257696,37.27506735554131],[127.03833455225924,37.26946135509624],[127.0347941758409,37.26793779614611],[127.03586657318226,37.26638928151273],[127.04040862083214,37.265283700093846],[127.04279560544761,37.27049059244662],[127.04798617070318,37.273521151638114]]]}},{"type":"Feature","properties":{"emd_cd":"4111752000","emd_nm":"매탄2동","sgg_cd":"41117","sgg_nm":"수원시","district":"정","district_label":"수원시정"},"geometry":{"type":"Polygon","coordinates":[[[127.0554243963517,37.26715277796769],[127.0583064540559,37.26863731116153],[127.05836288737078,37.271168108676164],[127.05315600622406,37.27311597957195],[127.04798617070318,37.273521151638114],[127.04279560544761,37.27049059244662],[127.0554243963517,37.26715277796769]]]}},{"type":"Feature","properties":{"emd_cd":"4111753000","emd_nm":"매탄3동","sgg_cd":"41117","sgg_nm":"수원시","district":"정","district_label":"수원시정"},"geometry":{"type":"Polygon","coordinates":[[[127.06155053215493,37.26450175228054],[127.05966555684564,37.261706291635114],[127.05198679201231,37.26568744924053],[127.04952181616478,37.263078697315564],[127.04040862083214,37.265283700093846],[127.03667421739159,37.25652104110118],[127.03946686085655,37.25417140503255],[127.0425353552713,37.25116137228451],[127.03955699721548,37.247003397449795],[127.03968326246633,37.24350305425567],[127.04042368328864,37.24632621013356],[127.04262323978682,37.24675055836817],[127.0458549032456,37.25097685752048],[127.05321984642546,37.248588112450086],[127.06162736045306,37.25295525946247],[127.06474574215918,37.25618024447091],[127.06299512206516,37.257266764925575],[127.06008713726287,37.257747204947854],[127.06155053215493,37.26450175228054]]]}},{"type":"Feature","properties":{"emd_cd":"4111754000","emd_nm":"매탄4동","sgg_cd":"41117","sgg_nm":"수원시","district":"정","district_label":"수원시정"},"geometry":{"type":"Polygon","coordinates":[[[127.0554243963517,37.26715277796769],[127.04279560544761,37.27049059244662],[127.04040862083214,37.265283700093846],[127.04952181616478,37.263078697315564],[127.05198679201231,37.26568744924053],[127.05966555684564,37.261706291635114],[127.06155053215493,37.26450175228054],[127.0554243963517,37.26715277796769]]]}},{"type":"Feature","properties":{"emd_cd":"4111757000","emd_nm":"영통1동","sgg_cd":"41117","sgg_nm":"수원시","district":"정","district_label":"수원시정"},"geometry":{"type":"Polygon","coordinates":[[[127.08243871904678,37.25445083748968],[127.08469846603053,37.25660909172631],[127.08122497149147,37.260592298820555],[127.08620366981569,37.264773130473046],[127.08552868391035,37.270508152007324],[127.07599161853601,37.26572740626982],[127.0708920037222,37.266548456282656],[127.0705865776977,37.26298458288273],[127.0676729577992,37.259479941289015],[127.06522891349881,37.258311603774686],[127.06578842477523,37.25711476604373],[127.07128006929035,37.257406324089075],[127.07166101990953,37.25753051820745],[127.07271268937612,37.25757826128905],[127.08005529034543,37.253187565098656],[127.08243871904678,37.25445083748968]]]}},{"type":"Feature","properties":{"emd_cd":"4111758000","emd_nm":"영통2동","sgg_cd":"41117","sgg_nm":"수원시","district":"무","district_label":"수원시무"},"geometry":{"type":"Polygon","coordinates":[[[127.06441694970003,37.24375439282019],[127.06804133911488,37.24802733113533],[127.06088265799937,37.25218405877391],[127.06162736045306,37.25295525946247],[127.05321984642546,37.248588112450086],[127.0458549032456,37.25097685752048],[127.04262323978682,37.24675055836817],[127.04197312287468,37.24509581679244],[127.05011017092689,37.24565424729325],[127.05688288760213,37.24565764964077],[127.05807466913609,37.244372034707474],[127.06441694970003,37.24375439282019]]]}},{"type":"Feature","properties":{"emd_cd":"4111759300","emd_nm":"망포1동","sgg_cd":"41117","sgg_nm":"수원시","district":"무","district_label":"수원시무"},"geometry":{"type":"Polygon","coordinates":[[[127.05166042533368,37.234314662996674],[127.056319798804,37.23286697604072],[127.06325900249342,37.23916712186339],[127.06667990835032,37.24014808570359],[127.06621168726228,37.243882199339524],[127.06441694970003,37.24375439282019],[127.05807466913609,37.244372034707474],[127.05688288760213,37.24565764964077],[127.05527989387787,37.242059076642036],[127.05600821849129,37.23922386063446],[127.05192457055017,37.23911423775796],[127.05166042533368,37.234314662996674]]]}},{"type":"Feature","properties":{"emd_cd":"4111755000","emd_nm":"원천동","sgg_cd":"41117","sgg_nm":"수원시","district":"정","district_label":"수원시정"},"geometry":{"type":"Polygon","coordinates":[[[127.05351498664938,37.282791489218425],[127.05233473093516,37.280566175839944],[127.04834962801611,37.285616960862896],[127.04536148335394,37.287155911560205],[127.04407293717225,37.28542697885889],[127.0417838318746,37.28412696345384],[127.04375559105836,37.27915438615593],[127.04405384082548,37.274707160443825],[127.04798617070318,37.273521151638114],[127.05315600622406,37.27311597957195],[127.05836288737078,37.271168108676164],[127.0583064540559,37.26863731116153],[127.0554243963517,37.26715277796769],[127.06155053215493,37.26450175228054],[127.06008713726287,37.257747204947854],[127.06299512206516,37.257266764925575],[127.0676729577992,37.259479941289015],[127.0705865776977,37.26298458288273],[127.0708920037222,37.266548456282656],[127.06465737194159,37.271105907789334],[127.06805589424259,37.27560955513144],[127.06602647769648,37.27421849373418],[127.06055195498213,37.27545085349086],[127.05910634045547,37.282678384854826],[127.057341021612,37.284308571171906],[127.05351498664938,37.282791489218425]]]}},{"type":"Feature","properties":{"emd_cd":"4111760000","emd_nm":"광교1동","sgg_cd":"41117","sgg_nm":"수원시","district":"정","district_label":"수원시정"},"geometry":{"type":"Polygon","coordinates":[[[127.06061731958967,37.31094262670583],[127.05811267518868,37.3133670497766],[127.05765379824098,37.315564081709866],[127.04902540099998,37.31591974988571],[127.04066937798633,37.32003173535493],[127.03991793157468,37.32133695197896],[127.03889482898782,37.3208260119001],[127.03807111345938,37.31616030499192],[127.03423248277915,37.31376785004161],[127.03230777780381,37.309643171835575],[127.03322767150036,37.30801641933274],[127.03257548433444,37.298754329955806],[127.03450075482951,37.295422269134264],[127.03393198638591,37.293201483507204],[127.03826149275932,37.2929863447301],[127.04322176615761,37.290372381986764],[127.03880513434268,37.284797001572805],[127.04407293717225,37.28542697885889],[127.04536148335394,37.287155911560205],[127.04834962801611,37.285616960862896],[127.05233473093516,37.280566175839944],[127.05351498664938,37.282791489218425],[127.06275742985858,37.29065456236839],[127.06504083349172,37.29181257153652],[127.0618567237614,37.296361884430674],[127.0600896638569,37.299455839705544],[127.06080678547758,37.30409557158788],[127.05818174508379,37.30493819606865],[127.06061731958967,37.31094262670583]]]}},{"type":"Feature","properties":{"emd_cd":"4111761000","emd_nm":"광교2동","sgg_cd":"41117","sgg_nm":"수원시","district":"정","district_label":"수원시정"},"geometry":{"type":"Polygon","coordinates":[[[127.08831098648984,37.29317439401815],[127.09057974788645,37.29714363993999],[127.08988322859707,37.29841355682056],[127.08559364835422,37.2981315778418],[127.07979844684168,37.295353674443895],[127.07934432974142,37.293274785644954],[127.0618567237614,37.296361884430674],[127.06504083349172,37.29181257153652],[127.06275742985858,37.29065456236839],[127.05351498664938,37.282791489218425],[127.057341021612,37.284308571171906],[127.05910634045547,37.282678384854826],[127.06055195498213,37.27545085349086],[127.06602647769648,37.27421849373418],[127.06805589424259,37.27560955513144],[127.0695382561455,37.27874279235638],[127.07541111503502,37.282238873946945],[127.08168263906177,37.28463299515126],[127.08413476308137,37.28631822665879],[127.08863439802808,37.28687478477174],[127.08831098648984,37.29317439401815]]]}},{"type":"Feature","properties":{"emd_cd":"4111367000","emd_nm":"권선1동","sgg_cd":"41113","sgg_nm":"수원시","district":"무","district_label":"수원시무"},"geometry":{"type":"Polygon","coordinates":[[[127.02067671924755,37.264501184152486],[127.01704032574978,37.257429609607044],[127.03506998150024,37.25286747838009],[127.03946686085655,37.25417140503255],[127.03667421739159,37.25652104110118],[127.03046150805054,37.25820133095293],[127.03158850045514,37.261057445438645],[127.02934928316769,37.26228249007329],[127.02067671924755,37.264501184152486]]]}},{"type":"Feature","properties":{"emd_cd":"4111758500","emd_nm":"영통3동","sgg_cd":"41117","sgg_nm":"수원시","district":"무","district_label":"수원시무"},"geometry":{"type":"Polygon","coordinates":[[[127.07128006929035,37.257406324089075],[127.06578842477523,37.25711476604373],[127.06522891349881,37.258311603774686],[127.06299512206516,37.257266764925575],[127.06474574215918,37.25618024447091],[127.06088265799937,37.25218405877391],[127.06804133911488,37.24802733113533],[127.06441694970003,37.24375439282019],[127.06621168726228,37.243882199339524],[127.06961848176353,37.246191415116435],[127.07650867331243,37.2475322997167],[127.08003514715102,37.24754042543945],[127.08210870040487,37.24940352490584],[127.08243871904678,37.25445083748968],[127.08005529034543,37.253187565098656],[127.07271268937612,37.25757826128905],[127.07166101990953,37.25753051820745],[127.07128006929035,37.257406324089075]]]}},{"type":"Feature","properties":{"emd_cd":"4111759600","emd_nm":"망포2동","sgg_cd":"41117","sgg_nm":"수원시","district":"무","district_label":"수원시무"},"geometry":{"type":"Polygon","coordinates":[[[127.05688288760213,37.24565764964077],[127.05011017092689,37.24565424729325],[127.04197312287468,37.24509581679244],[127.03912169709646,37.23723913429771],[127.04498933939965,37.233173413920106],[127.05166042533368,37.234314662996674],[127.05192457055017,37.23911423775796],[127.05600821849129,37.23922386063446],[127.05527989387787,37.242059076642036],[127.05688288760213,37.24565764964077]]]}}]}