{"type":"FeatureCollection","features":[{"type":"Feature","properties":{"emd_cd":"4113151000","emd_nm":"신흥1동","sgg_cd":"41131","sgg_nm":"성남시","district":"수정구","district_label":"성남시수정구"},"geometry":{"type":"Polygon","coordinates":[[[127.14458097510234,37.43954905979738],[127.14246084170483,37.44412565908432],[127.13613305393076,37.442204477482804],[127.13762174797795,37.43925703589788],[127.14078770151768,37.437419524806344],[127.14458097510234,37.43954905979738]]]}},{"type":"Feature","properties":{"emd_cd":"4113152000","emd_nm":"신흥2동","sgg_cd":"41131","sgg_nm":"성남시","district":"수정구","district_label":"성남시수정구"},"geometry":{"type":"Polygon","coordinates":[[[127.1504848807989,37.45680267316978],[127.1495054172789,37.45682333140987],[127.1428844581098,37.45623458987097],[127.14015133448736,37.45307715869381],[127.14541544187631,37.4462674036165],[127.15225372691619,37.442591061906526],[127.15688402419163,37.44504960008613],[127.1573141433014,37.44569409769763],[127.15261122363903,37.44996635164133],[127.14932215100383,37.452310374977635],[127.1504848807989,37.45680267316978]]]}},{"type":"Feature","properties":{"emd_cd":"4113153000","emd_nm":"신흥3동","sgg_cd":"41131","sgg_nm":"성남시","district":"수정구","district_label":"성남시수정구"},"geometry":{"type":"Polygon","coordinates":[[[127.15225372691619,37.442591061906526],[127.14541544187631,37.4462674036165],[127.14246084170483,37.44412565908432],[127.14458097510234,37.43954905979738],[127.15225372691619,37.442591061906526]]]}},{"type":"Feature","properties":{"emd_cd":"4113154000","emd_nm":"태평1동","sgg_cd":"41131","sgg_nm":"성남시","district":"수정구","district_label":"성남시수정구"},"geometry":{"type":"Polygon","coordinates":[[[127.12019337649987,37.45309806301532],[127.11730323624397,37.452811568702735],[127.11646133317599,37.4449770680706],[127.1182618202275,37.44063829293977],[127.12288800963776,37.43954558438038],[127.12725764951894,37.43958423366609],[127.13176378446163,37.440900852608046],[127.1281929796185,37.44905832143522],[127.12259245942577,37.45129402525092],[127.12019337649987,37.45309806301532]]]}},{"type":"Feature","properties":{"emd_cd":"4113155000","emd_nm":"태평2동","sgg_cd":"41131","sgg_nm":"성남시","district":"수정구","district_label":"성남시수정구"},"geometry":{"type":"Polygon","coordinates":[[[127.13741591102351,37.453070982995094],[127.13545134364459,37.45294330503014],[127.13242591748036,37.450255740799754],[127.13613305393076,37.442204477482804],[127.14075908815587,37.44360784620937],[127.13715226335216,37.451329454986755],[127.13741591102351,37.453070982995094]]]}},{"type":"Feature","properties":{"emd_cd":"4113156000","emd_nm":"태평3동","sgg_cd":"41131","sgg_nm":"성남시","district":"수정구","district_label":"성남시수정구"},"geometry":{"type":"Polygon","coordinates":[[[127.13613305393076,37.442204477482804],[127.13242591748036,37.450255740799754],[127.1281929796185,37.44905832143522],[127.13176378446163,37.440900852608046],[127.13613305393076,37.442204477482804]]]}},{"type":"Feature","properties":{"emd_cd":"4113156100","emd_nm":"태평4동","sgg_cd":"41131","sgg_nm":"성남시","district":"수정구","district_label":"성남시수정구"},"geometry":{"type":"Polygon","coordinates":[[[127.14015133448736,37.45307715869381],[127.13741591102351,37.453070982995094],[127.13715226335216,37.451329454986755],[127.14075908815587,37.44360784620937],[127.14246084170483,37.44412565908432],[127.14541544187631,37.4462674036165],[127.14015133448736,37.45307715869381]]]}},{"type":"Feature","properties":{"emd_cd":"4113157000","emd_nm":"수진1동","sgg_cd":"41131","sgg_nm":"성남시","district":"수정구","district_label":"성남시수정구"},"geometry":{"type":"Polygon","coordinates":[[[127.14078770151768,37.437419524806344],[127.13762174797795,37.43925703589788],[127.13613305393076,37.442204477482804],[127.13176378446163,37.440900852608046],[127.1346710524672,37.434657716556856],[127.14078770151768,37.437419524806344]]]}},{"type":"Feature","properties":{"emd_cd":"4113158000","emd_nm":"수진2동","sgg_cd":"41131","sgg_nm":"성남시","district":"수정구","district_label":"성남시수정구"},"geometry":{"type":"Polygon","coordinates":[[[127.1346710524672,37.434657716556856],[127.13176378446163,37.440900852608046],[127.12725764951894,37.43958423366609],[127.12288800963776,37.43954558438038],[127.1182618202275,37.44063829293977],[127.11873912491751,37.43930693266377],[127.1183888109848,37.43232565827615],[127.1258821339138,37.43303818444421],[127.1346710524672,37.434657716556856]]]}},{"type":"Feature","properties":{"emd_cd":"4113159000","emd_nm":"단대동","sgg_cd":"41131","sgg_nm":"성남시","district":"수정구","district_label":"성남시수정구"},"geometry":{"type":"Polygon","coordinates":[[[127.16084827827204,37.45417943838781],[127.15879195171972,37.45757965030831],[127.15797769235618,37.4611926312622],[127.16083779960081,37.46432430462165],[127.15384094537947,37.4634093945967],[127.15527543936261,37.462676697943664],[127.1546847906676,37.45125795943154],[127.15261122363903,37.44996635164133],[127.1573141433014,37.44569409769763],[127.16084827827204,37.45417943838781]]]}},{"type":"Feature","properties":{"emd_cd":"4113160000","emd_nm":"산성동","sgg_cd":"41131","sgg_nm":"성남시","district":"수정구","district_label":"성남시수정구"},"geometry":{"type":"Polygon","coordinates":[[[127.15384094537947,37.4634093945967],[127.15074907461339,37.46154912701005],[127.1504848807989,37.45680267316978],[127.14932215100383,37.452310374977635],[127.15261122363903,37.44996635164133],[127.1546847906676,37.45125795943154],[127.15527543936261,37.462676697943664],[127.15384094537947,37.4634093945967]]]}},{"type":"Feature","properties":{"emd_cd":"4113161000","emd_nm":"양지동","sgg_cd":"41131","sgg_nm":"성남시","district":"수정구","district_label":"성남시수정구"},"geometry":{"type":"Polygon","coordinates":[[[127.16084827827204,37.45417943838781],[127.16629817382125,37.46066902666759],[127.17400321991784,37.46611339088566],[127.17691102556596,37.47133353568197],[127.17595660831105,37.47219961484187],[127.17073526870294,37.469945283180444],[127.1646152487135,37.469097701086106],[127.15965576934502,37.46549155766488],[127.16083779960081,37.46432430462165],[127.15797769235618,37.4611926312622],[127.15879195171972,37.45757965030831],[127.16084827827204,37.45417943838781]]]}},{"type":"Feature","properties":{"emd_cd":"4113162000","emd_nm":"복정동","sgg_cd":"41131","sgg_nm":"성남시","district":"수정구","district_label":"성남시수정구"},"geometry":{"type":"Polygon","coordinates":[[[127.12658929140393,37.46885064813597],[127.12506666419759,37.46890107776615],[127.12229337185815,37.46521354246407],[127.11746048978142,37.46217165665754],[127.11674713187564,37.458594296695395],[127.11816175078775,37.45475577161871],[127.12019337649987,37.45309806301532],[127.12259245942577,37.45129402525092],[127.1281929796185,37.44905832143522],[127.13242591748036,37.450255740799754],[127.13545134364459,37.45294330503014],[127.13741591102351,37.453070982995094],[127.14015133448736,37.45307715869381],[127.1428844581098,37.45623458987097],[127.1495054172789,37.45682333140987],[127.14718524308633,37.4594999549441],[127.13825351682608,37.46438553309832],[127.13056448214506,37.46762846921045],[127.12658929140393,37.46885064813597]]]}},{"type":"Feature","properties":{"emd_cd":"4113163000","emd_nm":"신촌동","sgg_cd":"41131","sgg_nm":"성남시","district":"수정구","district_label":"성남시수정구"},"geometry":{"type":"Polygon","coordinates":[[[127.11674713187564,37.458594296695395],[127.11202039312181,37.4615601446767],[127.10630703065962,37.462538385867475],[127.10350183559004,37.45962547869016],[127.0982144531008,37.45879413651464],[127.0963176312864,37.461432021370484],[127.09428333076085,37.456523907590565],[127.09082304770212,37.4528310077961],[127.0883242428717,37.44863730582032],[127.08798962369333,37.4450615198716],[127.0902463928734,37.4448057149199],[127.09174533781815,37.44188821207543],[127.09984774100595,37.43995773522554],[127.10256526865565,37.44162876451191],[127.11060376299211,37.442679702593054],[127.1182618202275,37.44063829293977],[127.11646133317599,37.4449770680706],[127.11730323624397,37.452811568702735],[127.12019337649987,37.45309806301532],[127.11816175078775,37.45475577161871],[127.11674713187564,37.458594296695395]]]}},{"type":"Feature","properties":{"emd_cd":"4113164000","emd_nm":"고등동","sgg_cd":"41131","sgg_nm":"성남시","district":"수정구","district_label":"성남시수정구"},"geometry":{"type":"Polygon","coordinates":[[[127.1182618202275,37.44063829293977],[127.11060376299211,37.442679702593054],[127.10256526865565,37.44162876451191],[127.09984774100595,37.43995773522554],[127.09174533781815,37.44188821207543],[127.0902463928734,37.4448057149199],[127.08798962369333,37.4450615198716],[127.08565036261274,37.44502742776834],[127.08231119316262,37.441199502984134],[127.07632996600819,37.4422745047957],[127.07242381988966,37.44235311818686],[127.07337772677296,37.439340069370694],[127.07143014670831,37.43520137071211],[127.07045631000307,37.430063405275675],[127.0681601579917,37.43057635676533],[127.06567425909925,37.42901070369192],[127.06315602842413,37.42970655656822],[127.05788851053727,37.43013537292797],[127.05089348836941,37.42965493838711],[127.04746704771722,37.4308710922291],[127.04591520843624,37.42908721146393],[127.04182910582954,37.42691491657111],[127.04167534027411,37.415633660359624],[127.04675185046257,37.41360037457231],[127.05565280485419,37.413120382123566],[127.06417775675466,37.415893396698124],[127.06927072582026,37.421341704753566],[127.07273035462433,37.4230950331287],[127.07518689974842,37.422378281986255],[127.07917065664222,37.42365783161758],[127.08361910608708,37.42396089620073],[127.08383719746712,37.42118431188317],[127.08737369617533,37.41838555229761],[127.08971812818015,37.42173666376989],[127.09534267123023,37.42201070265946],[127.10257724140445,37.423195762819894],[127.10213478672338,37.42725045469247],[127.10654658231222,37.42745453195906],[127.1107419866918,37.42854328083993],[127.11470729902022,37.42726392845799],[127.11440422376059,37.4241013765736],[127.11778538144125,37.422199251129555],[127.11793021493745,37.42651160626826],[127.1183888109848,37.43232565827615],[127.11873912491751,37.43930693266377],[127.1182618202275,37.44063829293977]]]}},{"type":"Feature","properties":{"emd_cd":"4113165000","emd_nm":"시흥동","sgg_cd":"41131","sgg_nm":"성남시","district":"수정구","district_label":"성남시수정구"},"geometry":{"type":"Polygon","coordinates":[[[127.11778538144125,37.422199251129555],[127.11440422376059,37.4241013765736],[127.11470729902022,37.42726392845799],[127.1107419866918,37.42854328083993],[127.10654658231222,37.42745453195906],[127.10213478672338,37.42725045469247],[127.10257724140445,37.423195762819894],[127.09534267123023,37.42201070265946],[127.08971812818015,37.42173666376989],[127.08737369617533,37.41838555229761],[127.08383719746712,37.42118431188317],[127.08361910608708,37.42396089620073],[127.07917065664222,37.42365783161758],[127.07518689974842,37.422378281986255],[127.07273035462433,37.4230950331287],[127.06927072582026,37.421341704753566],[127.06417775675466,37.415893396698124],[127.05565280485419,37.413120382123566],[127.04675185046257,37.41360037457231],[127.04659663529634,37.41062297370824],[127.04279101446623,37.40824109185007],[127.04369971656885,37.40420642770929],[127.04975358444794,37.40365390598352],[127.0558749505216,37.40242527422457],[127.06305171953751,37.39866060550486],[127.06763507846138,37.39795183767051],[127.07451042268629,37.39786636855714],[127.07851493492377,37.39911446785234],[127.0840106493746,37.39696952369935],[127.08899026681333,37.40096990242821],[127.08889073063496,37.402902974436905],[127.09474284756303,37.405731653708415],[127.09954932741834,37.40722559354943],[127.1025591422324,37.40970646944234],[127.10657171582919,37.40765124512835],[127.11121149059909,37.40768928995485],[127.11574647067849,37.40900660287914],[127.11833555045469,37.41122786503144],[127.1179614007708,37.41520951658397],[127.119982883778,37.41926667071649],[127.11778538144125,37.422199251129555]]]}},{"type":"Feature","properties":{"emd_cd":"4113351000","emd_nm":"성남동","sgg_cd":"41133","sgg_nm":"성남시","district":"중원구","district_label":"성남시중원구"},"geometry":{"type":"Polygon","coordinates":[[[127.14451041625522,37.43952243291917],[127.14078770151768,37.437419524806344],[127.1346710524672,37.434657716556856],[127.1258821339138,37.43303818444421],[127.1183888109848,37.43232565827615],[127.11793021493745,37.42651160626826],[127.11984958977389,37.427889003673855],[127.12531639171895,37.42379958199597],[127.12883224235294,37.42391094563186],[127.12939490804663,37.42983360943612],[127.13262503789463,37.4288961190395],[127.14008934917682,37.428986684197184],[127.14706556968854,37.43252983370444],[127.14788964181213,37.43471924594991],[127.14451041625522,37.43952243291917]]]}},{"type":"Feature","properties":{"emd_cd":"4113353000","emd_nm":"금광1동","sgg_cd":"41133","sgg_nm":"성남시","district":"중원구","district_label":"성남시중원구"},"geometry":{"type":"Polygon","coordinates":[[[127.17543404063144,37.44575870167573],[127.17302513947511,37.44791316733926],[127.160204693002,37.444768401325305],[127.15695072860407,37.44512969122254],[127.15688402419163,37.44504960008613],[127.15998149239401,37.441154265883995],[127.16255811654197,37.440440683480766],[127.16702767018629,37.44291295524617],[127.16878408526662,37.44229035458207],[127.17543404063144,37.44575870167573]]]}},{"type":"Feature","properties":{"emd_cd":"4113354000","emd_nm":"금광2동","sgg_cd":"41133","sgg_nm":"성남시","district":"중원구","district_label":"성남시중원구"},"geometry":{"type":"Polygon","coordinates":[[[127.17543404063144,37.44575870167573],[127.17697063493874,37.447448525721796],[127.17857648663514,37.452271216492804],[127.17854106550516,37.454471041807736],[127.1723226422227,37.45410812444452],[127.1710817173489,37.45200901017858],[127.16221879135516,37.450134003507195],[127.16266105533879,37.45319311107889],[127.16084827827204,37.45417943838781],[127.1573141433014,37.44569409769763],[127.15695072860407,37.44512969122254],[127.160204693002,37.444768401325305],[127.17302513947511,37.44791316733926],[127.17543404063144,37.44575870167573]]]}},{"type":"Feature","properties":{"emd_cd":"4113355000","emd_nm":"은행1동","sgg_cd":"41133","sgg_nm":"성남시","district":"중원구","district_label":"성남시중원구"},"geometry":{"type":"Polygon","coordinates":[[[127.1723226422227,37.45410812444452],[127.16954094239117,37.45432686708498],[127.16266105533879,37.45319311107889],[127.16221879135516,37.450134003507195],[127.1710817173489,37.45200901017858],[127.1723226422227,37.45410812444452]]]}},{"type":"Feature","properties":{"emd_cd":"4113356000","emd_nm":"은행2동","sgg_cd":"41133","sgg_nm":"성남시","district":"중원구","district_label":"성남시중원구"},"geometry":{"type":"Polygon","coordinates":[[[127.18105370146309,37.473289546856094],[127.17773121888236,37.473406666505866],[127.17595660831105,37.47219961484187],[127.17691102556596,37.47133353568197],[127.17400321991784,37.46611339088566],[127.16629817382125,37.46066902666759],[127.16084827827204,37.45417943838781],[127.16266105533879,37.45319311107889],[127.16954094239117,37.45432686708498],[127.1723226422227,37.45410812444452],[127.17854106550516,37.454471041807736],[127.1844467181798,37.458758303790994],[127.18160443928619,37.460469014384735],[127.18202610284817,37.467894001886066],[127.18105370146309,37.473289546856094]]]}},{"type":"Feature","properties":{"emd_cd":"4113357000","emd_nm":"상대원1동","sgg_cd":"41133","sgg_nm":"성남시","district":"중원구","district_label":"성남시중원구"},"geometry":{"type":"Polygon","coordinates":[[[127.19572052907094,37.44505918785409],[127.19359146549029,37.452579914513784],[127.19099094021566,37.45735319679481],[127.1844467181798,37.458758303790994],[127.17854106550516,37.454471041807736],[127.17857648663514,37.452271216492804],[127.17697063493874,37.447448525721796],[127.17543404063144,37.44575870167573],[127.16878408526662,37.44229035458207],[127.16432495961652,37.4373132108061],[127.1614907817013,37.43736619784846],[127.15887243458668,37.43426583753199],[127.16112304507264,37.43070850836321],[127.1588362533504,37.42838540126991],[127.15962005610659,37.42797643799473],[127.16589191661264,37.427753184761876],[127.17509230190856,37.426061915773154],[127.17974855104066,37.42633018390771],[127.18713050959852,37.4313953920949],[127.19053905595396,37.43278121283357],[127.19439406731631,37.43276995462659],[127.19365607434285,37.439163116790084],[127.19572052907094,37.44505918785409]]]}},{"type":"Feature","properties":{"emd_cd":"4113358000","emd_nm":"상대원2동","sgg_cd":"41133","sgg_nm":"성남시","district":"중원구","district_label":"성남시중원구"},"geometry":{"type":"Polygon","coordinates":[[[127.16255811654197,37.440440683480766],[127.15998149239401,37.441154265883995],[127.15800754388982,37.43986781655768],[127.15317786113144,37.43864345397626],[127.15292070166377,37.436347581003005],[127.15804471265128,37.43278631972477],[127.1588362533504,37.42838540126991],[127.16112304507264,37.43070850836321],[127.15887243458668,37.43426583753199],[127.15822583065037,37.43648247144557],[127.16255811654197,37.440440683480766]]]}},{"type":"Feature","properties":{"emd_cd":"4113359000","emd_nm":"상대원3동","sgg_cd":"41133","sgg_nm":"성남시","district":"중원구","district_label":"성남시중원구"},"geometry":{"type":"Polygon","coordinates":[[[127.16878408526662,37.44229035458207],[127.16702767018629,37.44291295524617],[127.16255811654197,37.440440683480766],[127.15822583065037,37.43648247144557],[127.15887243458668,37.43426583753199],[127.1614907817013,37.43736619784846],[127.16432495961652,37.4373132108061],[127.16878408526662,37.44229035458207]]]}},{"type":"Feature","properties":{"emd_cd":"4113366000","emd_nm":"하대원동","sgg_cd":"41133","sgg_nm":"성남시","district":"중원구","district_label":"성남시중원구"},"geometry":{"type":"Polygon","coordinates":[[[127.1588362533504,37.42838540126991],[127.15804471265128,37.43278631972477],[127.15292070166377,37.436347581003005],[127.14788964181213,37.43471924594991],[127.14706556968854,37.43252983370444],[127.14008934917682,37.428986684197184],[127.13262503789463,37.4288961190395],[127.12939490804663,37.42983360943612],[127.12883224235294,37.42391094563186],[127.13178828312647,37.42507507452755],[127.13474534933908,37.423300655554975],[127.1390509680932,37.42397188312683],[127.14664036950305,37.42078817443636],[127.14857100125548,37.42271160293846],[127.15300158222954,37.42372408946652],[127.15782927896548,37.42613018270132],[127.15962005610659,37.42797643799473],[127.1588362533504,37.42838540126991]]]}},{"type":"Feature","properties":{"emd_cd":"4113367000","emd_nm":"도촌동","sgg_cd":"41133","sgg_nm":"성남시","district":"중원구","district_label":"성남시중원구"},"geometry":{"type":"Polygon","coordinates":[[[127.19439406731631,37.43276995462659],[127.19053905595396,37.43278121283357],[127.18713050959852,37.4313953920949],[127.17974855104066,37.42633018390771],[127.17509230190856,37.426061915773154],[127.16589191661264,37.427753184761876],[127.15962005610659,37.42797643799473],[127.15782927896548,37.42613018270132],[127.15300158222954,37.42372408946652],[127.14857100125548,37.42271160293846],[127.14664036950305,37.42078817443636],[127.1390509680932,37.42397188312683],[127.13474534933908,37.423300655554975],[127.13178828312647,37.42507507452755],[127.12883224235294,37.42391094563186],[127.12531639171895,37.42379958199597],[127.11984958977389,37.427889003673855],[127.11793021493745,37.42651160626826],[127.11778538144125,37.422199251129555],[127.119982883778,37.41926667071649],[127.1179614007708,37.41520951658397],[127.12211634135642,37.416949091223856],[127.13388401482212,37.4169640719078],[127.14359500065562,37.415042909753765],[127.14686648536272,37.41249732778739],[127.14655154224674,37.41098320232183],[127.15527757605896,37.41076559544888],[127.16466554574558,37.40669245965013],[127.17425924843835,37.40542693949518],[127.17715341278021,37.40901671566778],[127.17777894071517,37.413512909623],[127.1802577417367,37.41590262345924],[127.18488976233455,37.41534496877871],[127.1863224335016,37.41920827133679],[127.19137287368767,37.42206379873072],[127.19463802974579,37.425393474152195],[127.19335894221092,37.42609698689695],[127.19523060864046,37.431031221967686],[127.19439406731631,37.43276995462659]]]}},{"type":"Feature","properties":{"emd_cd":"4113352500","emd_nm":"중앙동","sgg_cd":"41133","sgg_nm":"성남시","district":"중원구","district_label":"성남시중원구"},"geometry":{"type":"Polygon","coordinates":[[[127.15998149239401,37.441154265883995],[127.15688402419163,37.44504960008613],[127.15225372691619,37.442591061906526],[127.14451041625522,37.43952243291917],[127.14788964181213,37.43471924594991],[127.15292070166377,37.436347581003005],[127.15317786113144,37.43864345397626],[127.15800754388982,37.43986781655768],[127.15998149239401,37.441154265883995]]]}},{"type":"Feature","properties":{"emd_cd":"4113551000","emd_nm":"분당동","sgg_cd":"41135","sgg_nm":"성남시","district":"분당구을","district_label":"성남시분당구을"},"geometry":{"type":"Polygon","coordinates":[[[127.16077265206819,37.37416070311407],[127.15074397730345,37.37428812105612],[127.147440795776,37.374934097924985],[127.14550343596042,37.37890452332736],[127.1428147713159,37.37886150503707],[127.14303528636688,37.375360305475915],[127.14148830769209,37.37275514131263],[127.13702848681648,37.36953484999464],[127.13039100898982,37.37534402836914],[127.12562448369782,37.371962351508756],[127.12883742332593,37.36914777304938],[127.1321220038516,37.36895860414369],[127.13318966469495,37.365395827326786],[127.1394819152213,37.359960688320946],[127.14443214395307,37.35938863911604],[127.15019197074653,37.361353927152194],[127.15285403079064,37.363535230316685],[127.15619050950484,37.36861187463357],[127.16052109061826,37.37278529021694],[127.16077265206819,37.37416070311407]]]}},{"type":"Feature","properties":{"emd_cd":"4113554000","emd_nm":"수내3동","sgg_cd":"41135","sgg_nm":"성남시","district":"분당구을","district_label":"성남시분당구을"},"geometry":{"type":"Polygon","coordinates":[[[127.1394819152213,37.359960688320946],[127.13318966469495,37.365395827326786],[127.1321220038516,37.36895860414369],[127.12883742332593,37.36914777304938],[127.12562448369782,37.371962351508756],[127.12083339906663,37.36850381157208],[127.12415851224706,37.364887337583816],[127.12537990487124,37.362945504606685],[127.13101534372758,37.35956275174148],[127.1339446102722,37.358477799991036],[127.1394819152213,37.359960688320946]]]}},{"type":"Feature","properties":{"emd_cd":"4113552000","emd_nm":"수내1동","sgg_cd":"41135","sgg_nm":"성남시","district":"분당구을","district_label":"성남시분당구을"},"geometry":{"type":"Polygon","coordinates":[[[127.12175541356355,37.38223932551649],[127.11655221282123,37.386705773112425],[127.10900509657834,37.37851222905698],[127.11659848251716,37.37163703085187],[127.1218294448716,37.375376651560764],[127.11865560901997,37.37998825970411],[127.12175541356355,37.38223932551649]]]}},{"type":"Feature","properties":{"emd_cd":"4113553000","emd_nm":"수내2동","sgg_cd":"41135","sgg_nm":"성남시","district":"분당구을","district_label":"성남시분당구을"},"geometry":{"type":"Polygon","coordinates":[[[127.13039100898982,37.37534402836914],[127.12175541356355,37.38223932551649],[127.11865560901997,37.37998825970411],[127.1218294448716,37.375376651560764],[127.11659848251716,37.37163703085187],[127.12083339906663,37.36850381157208],[127.13039100898982,37.37534402836914]]]}},{"type":"Feature","properties":{"emd_cd":"4113556000","emd_nm":"정자2동","sgg_cd":"41135","sgg_nm":"성남시","district":"분당구을","district_label":"성남시분당구을"},"geometry":{"type":"Polygon","coordinates":[[[127.12083339906663,37.36850381157208],[127.11659848251716,37.37163703085187],[127.11478161423547,37.36970675531465],[127.11479173475743,37.363438805619275],[127.12318919050122,37.36349176939804],[127.12415851224706,37.364887337583816],[127.12083339906663,37.36850381157208]]]}},{"type":"Feature","properties":{"emd_cd":"4113557000","emd_nm":"정자3동","sgg_cd":"41135","sgg_nm":"성남시","district":"분당구을","district_label":"성남시분당구을"},"geometry":{"type":"Polygon","coordinates":[[[127.1339446102722,37.358477799991036],[127.13101534372758,37.35956275174148],[127.12537990487124,37.362945504606685],[127.12415851224706,37.364887337583816],[127.12318919050122,37.36349176939804],[127.11479173475743,37.363438805619275],[127.1148942802331,37.35995529657605],[127.10893265123126,37.359948130889016],[127.11167470457302,37.357320620096075],[127.11967620765635,37.35233831299024],[127.1274760242211,37.35329035508009],[127.13173657886057,37.35120127164446],[127.1339446102722,37.358477799991036]]]}},{"type":"Feature","properties":{"emd_cd":"4113558000","emd_nm":"서현1동","sgg_cd":"41135","sgg_nm":"성남시","district":"분당구갑","district_label":"성남시분당구갑"},"geometry":{"type":"Polygon","coordinates":[[[127.16866419060432,37.39544890432711],[127.15679354204488,37.396443743086614],[127.15134284458023,37.395569234141206],[127.14971726628956,37.39650524323381],[127.14571523219931,37.394682756234545],[127.1432596265324,37.39312267002406],[127.14339493862092,37.39079188875872],[127.14116678229257,37.38912661141679],[127.13631269121134,37.38928755388054],[127.12744545599995,37.38570626333657],[127.1216300132892,37.390486537973125],[127.12031208951268,37.39113022786164],[127.11655221282123,37.386705773112425],[127.12175541356355,37.38223932551649],[127.13039100898982,37.37534402836914],[127.13709410545579,37.380231087030836],[127.13956926084249,37.378743488189855],[127.14550343596042,37.37890452332736],[127.147440795776,37.374934097924985],[127.15074397730345,37.37428812105612],[127.16077265206819,37.37416070311407],[127.16169008470975,37.37971360263005],[127.16793571070426,37.38035100269824],[127.17345123672445,37.382672770073654],[127.17665032430153,37.385078106033475],[127.17681186712497,37.38724749390438],[127.1683919367876,37.39249499857584],[127.16866419060432,37.39544890432711]]]}},{"type":"Feature","properties":{"emd_cd":"4113559000","emd_nm":"서현2동","sgg_cd":"41135","sgg_nm":"성남시","district":"분당구갑","district_label":"성남시분당구갑"},"geometry":{"type":"Polygon","coordinates":[[[127.1428147713159,37.37886150503707],[127.13956926084249,37.378743488189855],[127.13709410545579,37.380231087030836],[127.13039100898982,37.37534402836914],[127.13702848681648,37.36953484999464],[127.14148830769209,37.37275514131263],[127.14303528636688,37.375360305475915],[127.1428147713159,37.37886150503707]]]}},{"type":"Feature","properties":{"emd_cd":"4113560000","emd_nm":"이매1동","sgg_cd":"41135","sgg_nm":"성남시","district":"분당구갑","district_label":"성남시분당구갑"},"geometry":{"type":"Polygon","coordinates":[[[127.14571523219931,37.394682756234545],[127.14105856725355,37.39953043928178],[127.13364674550724,37.40144454107482],[127.12873920942775,37.39897870626756],[127.12862727301469,37.4053261021955],[127.12450171595944,37.40531081223611],[127.1245324094349,37.39547925610092],[127.12415137634606,37.393163758371664],[127.1216300132892,37.390486537973125],[127.12744545599995,37.38570626333657],[127.13631269121134,37.38928755388054],[127.14116678229257,37.38912661141679],[127.14339493862092,37.39079188875872],[127.1432596265324,37.39312267002406],[127.14571523219931,37.394682756234545]]]}},{"type":"Feature","properties":{"emd_cd":"4113561000","emd_nm":"이매2동","sgg_cd":"41135","sgg_nm":"성남시","district":"분당구갑","district_label":"성남시분당구갑"},"geometry":{"type":"Polygon","coordinates":[[[127.12450171595944,37.40531081223611],[127.11913536584035,37.40545487768529],[127.12075952543432,37.394686802320386],[127.12031208951268,37.39113022786164],[127.1216300132892,37.390486537973125],[127.12415137634606,37.393163758371664],[127.1245324094349,37.39547925610092],[127.12450171595944,37.40531081223611]]]}},{"type":"Feature","properties":{"emd_cd":"4113562000","emd_nm":"야탑1동","sgg_cd":"41135","sgg_nm":"성남시","district":"분당구갑","district_label":"성남시분당구갑"},"geometry":{"type":"Polygon","coordinates":[[[127.13388401482212,37.4169640719078],[127.12211634135642,37.416949091223856],[127.1179614007708,37.41520951658397],[127.11833555045469,37.41122786503144],[127.11872945731801,37.40835600978638],[127.1270898907321,37.409854748899036],[127.13388045748256,37.409432585362595],[127.13388401482212,37.4169640719078]]]}},{"type":"Feature","properties":{"emd_cd":"4113564000","emd_nm":"야탑3동","sgg_cd":"41135","sgg_nm":"성남시","district":"분당구갑","district_label":"성남시분당구갑"},"geometry":{"type":"Polygon","coordinates":[[[127.17425924843835,37.40542693949518],[127.16466554574558,37.40669245965013],[127.15527757605896,37.41076559544888],[127.14655154224674,37.41098320232183],[127.14686648536272,37.41249732778739],[127.14359500065562,37.415042909753765],[127.13388401482212,37.4169640719078],[127.13388045748256,37.409432585362595],[127.13798317204805,37.40954102609084],[127.13788639683568,37.4077683615545],[127.13410328350548,37.407470529346625],[127.12862727301469,37.4053261021955],[127.12873920942775,37.39897870626756],[127.13364674550724,37.40144454107482],[127.14105856725355,37.39953043928178],[127.14571523219931,37.394682756234545],[127.14971726628956,37.39650524323381],[127.15134284458023,37.395569234141206],[127.15679354204488,37.396443743086614],[127.16866419060432,37.39544890432711],[127.17082894197797,37.39791122031992],[127.17161619680242,37.40100953046627],[127.17425924843835,37.40542693949518]]]}},{"type":"Feature","properties":{"emd_cd":"4113563000","emd_nm":"야탑2동","sgg_cd":"41135","sgg_nm":"성남시","district":"분당구갑","district_label":"성남시분당구갑"},"geometry":{"type":"Polygon","coordinates":[[[127.13388045748256,37.409432585362595],[127.1270898907321,37.409854748899036],[127.11872945731801,37.40835600978638],[127.11913536584035,37.40545487768529],[127.12450171595944,37.40531081223611],[127.12862727301469,37.4053261021955],[127.13410328350548,37.407470529346625],[127.13788639683568,37.4077683615545],[127.13798317204805,37.40954102609084],[127.13388045748256,37.409432585362595]]]}},{"type":"Feature","properties":{"emd_cd":"4113567000","emd_nm":"구미동","sgg_cd":"41135","sgg_nm":"성남시","district":"분당구을","district_label":"성남시분당구을"},"geometry":{"type":"Polygon","coordinates":[[[127.13173657886057,37.35120127164446],[127.1274760242211,37.35329035508009],[127.11967620765635,37.35233831299024],[127.1207325523969,37.35039353847122],[127.12072655165737,37.34651197247745],[127.10893333555492,37.345832466512974],[127.1089162726922,37.34271242049766],[127.10224979511966,37.34241196367596],[127.10270015460546,37.33996058258117],[127.10895863437398,37.336011721999284],[127.11274845641292,37.3356886543662],[127.11688110214757,37.33341484040214],[127.12071627538178,37.33440745512825],[127.12329187362045,37.337006052485215],[127.1304711079624,37.33762033674181],[127.13634402208058,37.33964062278096],[127.1378724015942,37.34035853276677],[127.13806240995363,37.342227236970174],[127.13785866646893,37.34439444637006],[127.13414047372821,37.34720772327876],[127.13173657886057,37.35120127164446]]]}},{"type":"Feature","properties":{"emd_cd":"4113568000","emd_nm":"운중동","sgg_cd":"41135","sgg_nm":"성남시","district":"분당구갑","district_label":"성남시분당구갑"},"geometry":{"type":"Polygon","coordinates":[[[127.08899026681333,37.40096990242821],[127.0840106493746,37.39696952369935],[127.07851493492377,37.39911446785234],[127.07451042268629,37.39786636855714],[127.06763507846138,37.39795183767051],[127.06305171953751,37.39866060550486],[127.0558749505216,37.40242527422457],[127.04975358444794,37.40365390598352],[127.04369971656885,37.40420642770929],[127.0374049540001,37.40084237717609],[127.03828142801405,37.39817099645502],[127.03871949204202,37.39132901636381],[127.0353643893056,37.388793154927704],[127.03145617101568,37.381236595157496],[127.02888689203216,37.37924673889712],[127.02708438230145,37.375570939236084],[127.02794237427015,37.37214238803066],[127.04634221491357,37.368234790992496],[127.04740159268083,37.36648904670242],[127.05310836661828,37.363255637806205],[127.05294665767083,37.36112664216762],[127.06307045950378,37.36038590495586],[127.0708847126684,37.35767543879921],[127.07454050281174,37.3531672449378],[127.07660677220562,37.35406012535863],[127.0754520221013,37.35973467491508],[127.07853352905225,37.365519041343404],[127.07706615705251,37.371171091429105],[127.07847749555674,37.37275917805284],[127.07946440418856,37.378733472325806],[127.0854241088567,37.38287687928179],[127.08391129072984,37.38633290282761],[127.086402322093,37.3931098591327],[127.08912704161239,37.398681976497976],[127.08899026681333,37.40096990242821]]]}},{"type":"Feature","properties":{"emd_cd":"4113566200","emd_nm":"금곡동","sgg_cd":"41135","sgg_nm":"성남시","district":"분당구을","district_label":"성남시분당구을"},"geometry":{"type":"Polygon","coordinates":[[[127.10345269242214,37.3761062683393],[127.10182271439824,37.3766517521198],[127.09384206709089,37.37600043551934],[127.08297399324161,37.37340383064805],[127.08109445181492,37.37170597460432],[127.07847749555674,37.37275917805284],[127.07706615705251,37.371171091429105],[127.07853352905225,37.365519041343404],[127.082850628865,37.36342849435351],[127.08854667964262,37.359770808683],[127.09211288198983,37.35834658210107],[127.09430003276763,37.35323313235356],[127.09571770535759,37.34798629115371],[127.10172796681748,37.34648784596637],[127.1033695011001,37.350070730966515],[127.11344261602693,37.35002407612079],[127.11750985881885,37.35370138106864],[127.11167470457302,37.357320620096075],[127.10853526053012,37.35664279979179],[127.10364408965079,37.35663259441037],[127.10355317041565,37.36184228026522],[127.1045179779078,37.365879194373385],[127.10378748751387,37.36849507825079],[127.10345269242214,37.3761062683393]]]}},{"type":"Feature","properties":{"emd_cd":"4113566500","emd_nm":"구미1동","sgg_cd":"41135","sgg_nm":"성남시","district":"분당구을","district_label":"성남시분당구을"},"geometry":{"type":"Polygon","coordinates":[[[127.11750985881885,37.35370138106864],[127.11344261602693,37.35002407612079],[127.1033695011001,37.350070730966515],[127.10172796681748,37.34648784596637],[127.09571770535759,37.34798629115371],[127.09430003276763,37.35323313235356],[127.09211288198983,37.35834658210107],[127.08854667964262,37.359770808683],[127.082850628865,37.36342849435351],[127.07853352905225,37.365519041343404],[127.0754520221013,37.35973467491508],[127.07660677220562,37.35406012535863],[127.07454050281174,37.3531672449378],[127.07810029810939,37.34910220427314],[127.08355588978169,37.352030749671115],[127.08698582035188,37.3509566080518],[127.08886631896898,37.34839872269095],[127.09245796143517,37.34712780529746],[127.09699149272102,37.34321893415098],[127.10224979511966,37.34241196367596],[127.1089162726922,37.34271242049766],[127.10893333555492,37.345832466512974],[127.12072655165737,37.34651197247745],[127.1207325523969,37.35039353847122],[127.11967620765635,37.35233831299024],[127.11750985881885,37.35370138106864]]]}},{"type":"Feature","properties":{"emd_cd":"4113565500","emd_nm":"삼평동","sgg_cd":"41135","sgg_nm":"성남시","district":"분당구갑","district_label":"성남시분당구갑"},"geometry":{"type":"Polygon","coordinates":[[[127.12075952543432,37.394686802320386],[127.11833555045469,37.41122786503144],[127.11574647067849,37.40900660287914],[127.11121149059909,37.40768928995485],[127.10657171582919,37.40765124512835],[127.1025591422324,37.40970646944234],[127.09954932741834,37.40722559354943],[127.09474284756303,37.405731653708415],[127.10016180866774,37.399871403962656],[127.10188935863161,37.39114167429865],[127.10626655512593,37.394729166311],[127.12075952543432,37.394686802320386]]]}},{"type":"Feature","properties":{"emd_cd":"4113565000","emd_nm":"판교동","sgg_cd":"41135","sgg_nm":"성남시","district":"분당구갑","district_label":"성남시분당구갑"},"geometry":{"type":"Polygon","coordinates":[[[127.10188935863161,37.39114167429865],[127.10016180866774,37.399871403962656],[127.09474284756303,37.405731653708415],[127.08889073063496,37.402902974436905],[127.08912704161239,37.398681976497976],[127.086402322093,37.3931098591327],[127.08391129072984,37.38633290282761],[127.0854241088567,37.38287687928179],[127.07946440418856,37.378733472325806],[127.07847749555674,37.37275917805284],[127.08109445181492,37.37170597460432],[127.08297399324161,37.37340383064805],[127.09384206709089,37.37600043551934],[127.10182271439824,37.3766517521198],[127.10345269242214,37.3761062683393],[127.103427598084,37.381408528220646],[127.10188935863161,37.39114167429865]]]}},{"type":"Feature","properties":{"emd_cd":"4113565700","emd_nm":"백현동","sgg_cd":"41135","sgg_nm":"성남시","district":"분당구갑","district_label":"성남시분당구갑"},"geometry":{"type":"Polygon","coordinates":[[[127.12075952543432,37.394686802320386],[127.10626655512593,37.394729166311],[127.10188935863161,37.39114167429865],[127.103427598084,37.381408528220646],[127.10900509657834,37.37851222905698],[127.11655221282123,37.386705773112425],[127.12031208951268,37.39113022786164],[127.12075952543432,37.394686802320386]]]}},{"type":"Feature","properties":{"emd_cd":"4113555000","emd_nm":"정자1동","sgg_cd":"41135","sgg_nm":"성남시","district":"분당구을","district_label":"성남시분당구을"},"geometry":{"type":"Polygon","coordinates":[[[127.10900509657834,37.37851222905698],[127.103427598084,37.381408528220646],[127.10345269242214,37.3761062683393],[127.10378748751387,37.36849507825079],[127.1045179779078,37.365879194373385],[127.10355317041565,37.36184228026522],[127.10364408965079,37.35663259441037],[127.10853526053012,37.35664279979179],[127.10826058863061,37.3580671128993],[127.10805664224812,37.372439240101734],[127.11234063682852,37.375492190509156],[127.10900509657834,37.37851222905698]]]}},{"type":"Feature","properties":{"emd_cd":"4113554500","emd_nm":"정자동","sgg_cd":"41135","sgg_nm":"성남시","district":"분당구을","district_label":"성남시분당구을"},"geometry":{"type":"Polygon","coordinates":[[[127.11659848251716,37.37163703085187],[127.11234063682852,37.375492190509156],[127.10805664224812,37.372439240101734],[127.10826058863061,37.3580671128993],[127.10853526053012,37.35664279979179],[127.11167470457302,37.357320620096075],[127.10893265123126,37.359948130889016],[127.1148942802331,37.35995529657605],[127.11479173475743,37.363438805619275],[127.11478161423547,37.36970675531465],[127.11659848251716,37.37163703085187]]]}},{"type":"Feature","properties":{"emd_cd":"4113162500","emd_nm":"위례동","sgg_cd":"41131","sgg_nm":"성남시","district":"수정구","district_label":"성남시수정구"},"geometry":{"type":"Polygon","coordinates":[[[127.1646152487135,37.469097701086106],[127.16279715069004,37.47125938009386],[127.15436269368145,37.47173364742645],[127.15445251626403,37.4736852785665],[127.1434452606241,37.47410418499762],[127.13258889298031,37.47484684726042],[127.13267621542862,37.46823394934359],[127.13056448214506,37.46762846921045],[127.13825351682608,37.46438553309832],[127.14718524308633,37.4594999549441],[127.1495054172789,37.45682333140987],[127.1504848807989,37.45680267316978],[127.15074907461339,37.46154912701005],[127.15384094537947,37.4634093945967],[127.16083779960081,37.46432430462165],[127.15965576934502,37.46549155766488],[127.1646152487135,37.469097701086106]]]}}]}